X.1,X,...1,Name,Address,prktype,restroom,Website,playground,soccer,basketball,tennis,volleyball,baseball,discgolf,dogpark,picnic,sprayground,latitude,longitude,Label,type2
14,14,17,West Mecklenburg Park,"2765 WESTERWOOD VILLAGE DR. CHARLOTTE, NC 28214",Neighborhood,No,https://www.mecknc.gov/parkandrec/pages/home.aspx?redirect=charmeck,NA,NA,NA,NA,NA,Yes,NA,NA,NA,NA,35.2502637632155,-80.9547768114046,,baseball
16,16,19,Ramblewood Soccer Complex,"10200 NATIONS FORD RD CHARLOTTE, NC 28273",Community,Yes,https://www.mecknc.gov/parkandrec/pages/home.aspx?redirect=charmeck,Yes,NA,Yes,NA,NA,Yes,NA,NA,NA,NA,35.1204747717008,-80.903420412006,,baseball
25,25,29,Greenville Park,"1232 SPRING ST CHARLOTTE, NC 28206",Neighborhood,No,https://www.mecknc.gov/parkandrec/pages/home.aspx?redirect=charmeck,Yes,NA,Yes,NA,NA,Yes,NA,NA,NA,NA,35.2452422699172,-80.8436376599257,,baseball
26,26,30,Southwest Park,"1729 VILMA ST CHARLOTTE, NC 28203",Community,Yes,https://www.mecknc.gov/parkandrec/pages/home.aspx?redirect=charmeck,NA,NA,NA,NA,NA,Yes,NA,NA,NA,NA,35.2100643362194,-80.9172783855878,,baseball
28,28,32,Friendship Sportsplex,"2310 CINDY LN CHARLOTTE, NC 28216",Regional,Yes,https://www.mecknc.gov/parkandrec/pages/home.aspx?redirect=charmeck,Yes,NA,NA,NA,NA,Yes,NA,NA,NA,NA,35.2834377442888,-80.8528026068974,,baseball
36,36,42,Reedy Creek Park,"2900 ROCKY RIVER RD CHARLOTTE, NC 28215",Regional,Yes,https://www.mecknc.gov/parkandrec/pages/home.aspx?redirect=charmeck,Yes,NA,Yes,NA,Yes,Yes,Yes,Yes,NA,NA,35.2759946810159,-80.7180725530453,,baseball
37,37,43,Clanton Park,"1520 CLANTON RD CHARLOTTE, NC 28217",Community,Yes,https://www.mecknc.gov/parkandrec/pages/home.aspx?redirect=charmeck,Yes,NA,Yes,NA,NA,Yes,NA,NA,NA,NA,35.2066252414352,-80.8936130409602,,baseball
41,41,47,Grayson Park,"750 BEAL ST CHARLOTTE, NC 28211",Neighborhood,No,https://www.mecknc.gov/parkandrec/pages/home.aspx?redirect=charmeck,Yes,NA,Yes,Yes,NA,Yes,NA,NA,NA,NA,35.1903948291116,-80.7965304408878,,baseball
46,46,52,Oakhurst Park,"3533 CRAIG AV CHARLOTTE, NC 28211",Neighborhood,No,https://www.mecknc.gov/parkandrec/pages/home.aspx?redirect=charmeck,Yes,NA,Yes,NA,NA,Yes,NA,NA,Yes,NA,35.1911805017912,-80.7896442676187,,baseball
63,63,69,Methodist Home Park,"3200 SHAMROCK DR CHARLOTTE, NC 28205",Neighborhood,No,https://www.mecknc.gov/parkandrec/pages/home.aspx?redirect=charmeck,Yes,NA,Yes,NA,NA,Yes,NA,NA,Yes,NA,35.2348607769751,-80.7716774259983,,baseball
67,67,74,Legion Park,"21214 LEGION ST CORNELIUS, NC 28031",Town Park,Yes,https://www.cornelius.org/103/Parks-Arts-Recreation-Culture,Yes,NA,NA,NA,NA,Yes,NA,NA,NA,NA,35.4874972761787,-80.8608829162246,,baseball
68,68,75,Smithville Park,"19710 FERRY ST CORNELIUS, NC 28031",Town Park,Yes,https://www.cornelius.org/103/Parks-Arts-Recreation-Culture,Yes,NA,NA,NA,NA,Yes,NA,NA,Yes,Yes,35.4821871228691,-80.8697588654967,,baseball
69,69,76,Torrence Chapel Park,"21309 TORRENCE CHAPEL RD CORNELIUS, NC 28031",Town Park,Yes,https://www.cornelius.org/103/Parks-Arts-Recreation-Culture,Yes,NA,Yes,Yes,NA,Yes,NA,NA,Yes,NA,35.4918604131224,-80.8783170202821,,baseball
72,73,80,Randolph Road Park,"201 BILLINGSLEY RD CHARLOTTE, NC 28205",Community,Yes,https://www.mecknc.gov/parkandrec/pages/home.aspx?redirect=charmeck,NA,NA,NA,NA,NA,Yes,NA,NA,NA,NA,35.1906035892862,-80.8090362858144,,baseball
73,75,82,Westmoreland Athletic Complex,"8430 WESTMORELAND RD CORNELIUS, NC 28031",Town Park,Yes,https://www.cornelius.org/103/Parks-Arts-Recreation-Culture,Yes,NA,NA,NA,NA,Yes,NA,NA,Yes,NA,35.461485325766,-80.8844040638734,,baseball
75,77,84,Renaissance Park,"1536 W TYVOLA RD CHARLOTTE, NC 28217",Regional,Yes,https://www.mecknc.gov/parkandrec/pages/home.aspx?redirect=charmeck,NA,NA,NA,NA,Yes,Yes,Yes,Yes,NA,NA,35.175099855529,-80.9096777631741,,baseball
79,81,88,Biddleville Park,"500 ANDRILL TR CHARLOTTE, NC 28216",Neighborhood,No,https://www.mecknc.gov/parkandrec/pages/home.aspx?redirect=charmeck,NA,NA,Yes,NA,NA,Yes,NA,NA,NA,NA,35.2434306139021,-80.850311208276,,baseball
83,86,93,Carmel Road Park,"2365 CARMEL RD CHARLOTTE, NC 28226",Neighborhood,Yes,https://www.mecknc.gov/parkandrec/pages/home.aspx?redirect=charmeck,Yes,NA,Yes,Yes,NA,Yes,NA,NA,NA,NA,35.13450706392,-80.8063645991298,,baseball
84,87,94,McEver Athletic Field,"626 SOUTH ST DAVIDSON, NC 28036",Town Park,Yes,https://www.ci.davidson.nc.us/130/Parks-Recreation,NA,NA,NA,NA,NA,Yes,NA,NA,Yes,NA,35.4910325109862,-80.84933583854,,baseball
88,91,98,Olde Providence Park,"3800 REA RD CHARLOTTE, NC 28226",Community,No,https://www.mecknc.gov/parkandrec/pages/home.aspx?redirect=charmeck,Yes,NA,Yes,NA,NA,Yes,NA,NA,NA,NA,35.1098472764231,-80.7984348470998,,baseball
91,94,101,T.M. Winget Park,"12025 WINGET RD CHARLOTTE, NC 28278",Regional,Yes,https://www.mecknc.gov/parkandrec/pages/home.aspx?redirect=charmeck,Yes,NA,Yes,NA,Yes,Yes,Yes,NA,Yes,NA,35.1301110200499,-81.0015366648542,,baseball
96,99,106,Berewick Park,"5920 DIXIE RIVER RD CHARLOTTE, NC 28208",Regional,Yes,https://www.mecknc.gov/parkandrec/pages/home.aspx?redirect=charmeck,Yes,NA,NA,NA,NA,Yes,NA,NA,NA,NA,35.1731578836354,-80.9788155405786,,baseball
104,107,114,Tuckaseegee Park,"4820 TUCKASEEGEE RD CHARLOTTE, NC 28208",Neighborhood,Yes,https://www.mecknc.gov/parkandrec/pages/home.aspx?redirect=charmeck,Yes,NA,Yes,Yes,NA,Yes,NA,NA,NA,NA,35.2480697171318,-80.906785187768,,baseball
118,121,131,Lakewood Park,"3207 KALYNNE ST CHARLOTTE, NC 28208",Neighborhood,No,https://www.mecknc.gov/parkandrec/pages/home.aspx?redirect=charmeck,Yes,NA,Yes,NA,NA,Yes,NA,NA,NA,NA,35.2529120593808,-80.8784434314007,,baseball
132,137,147,Kilborne Park,"2600 KILBORNE DR CHARLOTTE, NC 28205",Community,Yes,https://www.mecknc.gov/parkandrec/pages/home.aspx?redirect=charmeck,Yes,NA,NA,Yes,NA,Yes,Yes,NA,NA,NA,35.221856516987,-80.7713235670081,,baseball
147,152,165,Huntersville Athletic Park,"11836 VERHOEFF DR HUNTERSVILLE, NC 28078",Town Park,Yes,https://www.huntersville.org/162/Parks-Recreation,Yes,NA,NA,NA,NA,Yes,NA,NA,NA,NA,35.3914993978844,-80.847069597546,,baseball
159,165,179,Briarwood Park,"5349 WATERWOOD ST CHARLOTTE, NC 28215",Community,Yes,https://www.mecknc.gov/parkandrec/pages/home.aspx?redirect=charmeck,Yes,NA,NA,NA,NA,Yes,NA,NA,NA,NA,35.2544712892926,-80.7666621671842,,baseball
160,166,180,William R. Davie Park,"4635 PINEVILLE-MATTHEWS RD CHARLOTTE, NC 28226",Regional,Yes,https://www.mecknc.gov/parkandrec/pages/home.aspx?redirect=charmeck,Yes,NA,Yes,NA,Yes,Yes,NA,Yes,Yes,NA,35.0893538838549,-80.8060039688839,,baseball
168,174,188,Veterans Park,"2136 CENTRAL AV CHARLOTTE, NC 28205",Neighborhood,Yes,https://www.mecknc.gov/parkandrec/pages/home.aspx?redirect=charmeck,Yes,NA,Yes,Yes,NA,Yes,NA,NA,Yes,Yes,35.2197686596828,-80.8049350943288,,baseball
183,191,206,Cherry Park,"501 S TORRENCE ST CHARLOTTE, NC 28204",Neighborhood,No,https://www.mecknc.gov/parkandrec/pages/home.aspx?redirect=charmeck,Yes,NA,Yes,NA,NA,Yes,NA,NA,NA,NA,35.2102973398719,-80.8328275360477,,baseball
207,215,231,Albemarle Recreation Center,"5027 IDLEWILD RD NORTH CHARLOTTE, NC 28227",Recreation Center,Yes,https://www.mecknc.gov/parkandrec/pages/home.aspx?redirect=charmeck,Yes,NA,NA,NA,NA,Yes,NA,NA,NA,NA,35.1953878127365,-80.7243646436339,,baseball
211,219,235,Bryant Park,"1701 W MOREHEAD ST CHARLOTTE, NC 28208",Neighborhood,No,https://www.mecknc.gov/parkandrec/pages/home.aspx?redirect=charmeck,NA,NA,NA,NA,NA,Yes,NA,NA,NA,NA,35.2285297135087,-80.8680471054062,,baseball
213,221,237,Allen Hills Park,"4701 CHEVIOT RD CHARLOTTE, NC 28269",Neighborhood,Yes,https://www.mecknc.gov/parkandrec/pages/home.aspx?redirect=charmeck,Yes,NA,Yes,NA,NA,Yes,NA,NA,Yes,NA,35.2861681136825,-80.8178799039866,,baseball
218,226,242,R.C. Bradford Park,"17005 DAVIDSON-CONCORD RD HUNTERSVILLE, NC 28078",Town Park,Yes,https://www.huntersville.org/162/Parks-Recreation,Yes,NA,NA,NA,NA,Yes,Yes,NA,NA,NA,35.447380274337,-80.7879441973828,,baseball
219,227,243,Coulwood Park,"198 COULWOOD PARK DR CHARLOTTE, NC 28214",Community,Yes,https://www.mecknc.gov/parkandrec/pages/home.aspx?redirect=charmeck,Yes,NA,NA,Yes,Yes,Yes,NA,NA,NA,NA,35.3065754828297,-80.9419421526189,,baseball
221,229,245,Colonel Francis J. Beatty Park,"4330 WEDDINGTON RD CHARLOTTE, NC 28105",Regional,Yes,https://www.mecknc.gov/parkandrec/pages/home.aspx?redirect=charmeck,Yes,NA,Yes,Yes,Yes,Yes,NA,NA,Yes,NA,35.0678580985465,-80.7287248849222,,baseball
234,242,258,Hornets Nest Park,"6301 BEATTIES FORD RD CHARLOTTE, NC 28216",Regional,Yes,https://www.mecknc.gov/parkandrec/pages/home.aspx?redirect=charmeck,Yes,NA,Yes,Yes,Yes,Yes,Yes,NA,NA,NA,35.3200202859571,-80.8651414799234,,baseball
242,250,266,Idlewild Road Park,"10512 IDLEWILD RD MINT HILL, NC 28105",Regional,Yes,https://www.mecknc.gov/parkandrec/pages/home.aspx?redirect=charmeck,Yes,NA,NA,NA,NA,Yes,Yes,NA,Yes,NA,35.1639152413883,-80.6998318797694,,baseball
243,251,267,James Boyce Park,"300 BOYCE RD CHARLOTTE, NC 28211",Community,Yes,https://www.mecknc.gov/parkandrec/pages/home.aspx?redirect=charmeck,Yes,NA,NA,NA,NA,Yes,NA,NA,Yes,NA,35.1474108313769,-80.7692158180713,,baseball
244,252,268,L.C. Coleman Park,"1501 MCDONALD ST CHARLOTTE, NC 28216",Neighborhood,Yes,https://www.mecknc.gov/parkandrec/pages/home.aspx?redirect=charmeck,Yes,NA,Yes,NA,NA,Yes,NA,NA,NA,NA,35.2584567900778,-80.8616184845754,,baseball
247,255,271,Mallard Creek Park,"3001 JOHNSTON OEHLER RD CHARLOTTE, NC 28269",Regional,Yes,https://www.mecknc.gov/parkandrec/pages/home.aspx?redirect=charmeck,Yes,NA,NA,Yes,Yes,Yes,NA,NA,Yes,NA,35.3613345218918,-80.7594125391203,,baseball
253,261,277,Midwood Park,"2100 WILHELMINA AV CHARLOTTE, NC 28205",Neighborhood,Yes,https://www.mecknc.gov/parkandrec/pages/home.aspx?redirect=charmeck,Yes,NA,Yes,Yes,NA,Yes,NA,NA,Yes,NA,35.2297559934979,-80.8024808896841,,baseball
254,262,278,Mason Wallace Park,"7301 MONROE RD CHARLOTTE, NC 28212",Community,No,https://www.mecknc.gov/parkandrec/pages/home.aspx?redirect=charmeck,Yes,NA,Yes,Yes,NA,Yes,NA,NA,NA,NA,35.1689739107622,-80.7559792358852,,baseball
255,263,279,North Mecklenburg Park,"16131 OLD STATESVILLE RD HUNTERSVILLE, NC 28078",Town Park,Yes,https://www.huntersville.org/162/Parks-Recreation,Yes,NA,Yes,Yes,NA,Yes,NA,NA,NA,NA,35.4325415549355,-80.8435746029081,,baseball
260,268,284,Hickory Grove Park,"6709 PENCE RD CHARLOTTE, NC 28227",Neighborhood,No,https://www.mecknc.gov/parkandrec/pages/home.aspx?redirect=charmeck,Yes,NA,NA,NA,NA,Yes,NA,NA,NA,NA,35.2256972959934,-80.7173913610673,,baseball
262,270,286,Park Road Park,"6220 PARK RD CHARLOTTE, NC 28210",Community,Yes,https://www.mecknc.gov/parkandrec/pages/home.aspx?redirect=charmeck,Yes,NA,Yes,NA,Yes,Yes,NA,NA,Yes,NA,35.1468922730006,-80.8499198315654,,baseball
274,287,306,Grier Heights Park,"3120 LEROY ST CHARLOTTE, NC 28205",Neighborhood,No,https://www.mecknc.gov/parkandrec/pages/home.aspx?redirect=charmeck,Yes,NA,Yes,NA,NA,Yes,NA,NA,NA,NA,35.1963101219957,-80.8080229728864,,baseball
275,288,307,Elon Park,"11435 ARDREY KELL RD CHARLOTTE, NC 28277",Regional,Yes,https://www.mecknc.gov/parkandrec/pages/home.aspx?redirect=charmeck,NA,NA,NA,NA,NA,Yes,Yes,NA,Yes,NA,35.0223940308663,-80.8456161124603,,baseball
278,291,310,Bailey Road Park,"11536 BAILEY RD CORNELIUS, NC 28031",Town Park,Yes,https://www.cornelius.org/103/Parks-Arts-Recreation-Culture,Yes,NA,Yes,Yes,NA,Yes,Yes,NA,Yes,NA,35.4669995615807,-80.8418488276582,,baseball
295,308,328,Mint Hill Veterans Memorial Park,"8850 FAIRVIEW RD MINT HILL, NC 28227",Town Park,Yes,https://minthill.com/parks_recreation.php?Parks-Recreation-1,Yes,NA,NA,Yes,Yes,Yes,Yes,NA,NA,NA,35.1800049074388,-80.6344889578645,,baseball
296,309,330,Ballantyne Park,"10082 COMMUNITY HOUSE RD CHARLOTTE, NC 28277",Community,Yes,https://www.mecknc.gov/parkandrec/pages/home.aspx?redirect=charmeck,NA,NA,NA,NA,NA,Yes,NA,NA,NA,NA,35.039612676477,-80.8296464382288,,baseball
302,315,336,Nevin Park,"6100 STATESVILLE RD CHARLOTTE, NC 28269",Regional,Yes,https://www.mecknc.gov/parkandrec/pages/home.aspx?redirect=charmeck,Yes,NA,NA,NA,NA,Yes,Yes,NA,Yes,Yes,35.3033436903112,-80.8398307320042,,baseball
304,317,338,Newell Park,"9130 NEWELL BAPTIST CHURCH RD CHARLOTTE, NC 28213",Community,No,https://www.mecknc.gov/parkandrec/pages/home.aspx?redirect=charmeck,NA,NA,NA,NA,NA,Yes,NA,NA,Yes,NA,35.2853875238325,-80.7346210544614,,baseball
307,320,341,Freedom Park,"2435 CUMBERLAND AV CHARLOTTE, NC 28203",Regional,Yes,https://www.mecknc.gov/parkandrec/pages/home.aspx?redirect=charmeck,Yes,NA,Yes,Yes,Yes,Yes,NA,NA,Yes,NA,35.1930682697266,-80.8448018160398,,baseball
310,323,344,David B. Waymer Park,"14200 HOLBROOKS RD HUNTERSVILLE, NC 28078",Town Park,Yes,https://www.huntersville.org/162/Parks-Recreation,Yes,NA,Yes,Yes,NA,Yes,NA,NA,NA,NA,35.3992988012942,-80.8342523968563,,baseball
321,334,356,Mint Hill Park on Wilgrove,"7750 JIM HARPER LN MINT HILL, NC 28227",Town Park,Yes,https://minthill.com/parks_recreation.php?Parks-Recreation-1,Yes,NA,NA,Yes,NA,Yes,NA,NA,Yes,NA,35.1892020493252,-80.6565498212705,,baseball
325,338,362,River Run Athletic Park,"13130 ROBERT WALKER DR DAVIDSON, NC 28036",Town Park,Yes,https://www.ci.davidson.nc.us/130/Parks-Recreation,NA,NA,NA,NA,NA,Yes,NA,NA,NA,NA,35.4779464935039,-80.8188385850846,,baseball
336,349,375,Sugaw Creek Park,"943 W SUGAR CREEK RD CHARLOTTE, NC 28213",Community,Yes,https://www.mecknc.gov/parkandrec/pages/home.aspx?redirect=charmeck,Yes,NA,Yes,Yes,Yes,Yes,Yes,NA,NA,NA,35.273065578968,-80.7937216093388,,baseball
339,352,378,Frank Liske Park - Cabarrus County,"4001 Stough Rd Concord, NC",County Park,Yes,https://www.cabarruscounty.us/location/frank-liske-park,Yes,Yes,NA,NA,NA,Yes,Yes,NA,Yes,NA,35.360051719753,-80.6272013352079,,baseball
345,358,384,Bakers Creek Park/Greenway - City of Kanpolis,"1275 West A St Kannapolis, NC",Municipal Park,Yes,http://www.kanpolisnc.gov/GovernmentDepartments/ParksRecreation/Parks/tabid/131/Default.aspx,Yes,NA,Yes,NA,NA,Yes,Yes,NA,Yes,NA,35.5128579119937,-80.6322757489019,,baseball
348,361,389,W.W. Flowe Park - City of Concord,"99 Central Heights Dr Concord, NC",Municipal Park,Yes,https://www.concordnc.gov/Departments/Parks-Recreation/Facilities,Yes,NA,NA,NA,NA,Yes,NA,NA,Yes,NA,35.3585534242639,-80.5886254310507,,baseball
350,363,391,Harrisburg Town Park - Town of Harrisburg,"191 Sims Parkway Harrisburg, NC",Municipal Park,Yes,https://www.harrisburgnc.org/departments/parks-recreation/parks-facilities/harrisburg-park,Yes,NA,NA,NA,NA,Yes,NA,NA,Yes,NA,35.3195612584412,-80.6598146080793,,baseball
351,364,392,Stallings Road Park - Town of Harrisburg,"4050 Stallings Rd Harrisburg, NC",Municipal Park,Yes,https://www.harrisburgnc.org/departments/parks-recreation/parks-facilities/stallings-road-park,Yes,NA,NA,NA,NA,Yes,NA,NA,Yes,NA,35.3157167102524,-80.6459588340713,,baseball
353,366,394,Walter Safrit Park - City of Kanpolis,"1415 Bethpage Rd Kannapolis, NC",Municipal Park,Yes,http://www.kanpolisnc.gov/GovernmentDepartments/ParksRecreation/Parks/tabid/131/Default.aspx,Yes,Yes,NA,NA,NA,Yes,NA,NA,Yes,NA,35.4852977608515,-80.6494534960678,,baseball
355,368,397,Marvin Caldwell Park - City of Concord,"362 Georgia St SW Concord, NC",Municipal Park,Yes,http://www.concordnc.gov/Departments/Parks-Recreation/Facilities,Yes,Yes,Yes,Yes,NA,Yes,NA,NA,Yes,NA,35.3926267499257,-80.5827932198796,,baseball
356,369,398,Gibson Ball Park - City of Concord,"265 Ball Park Ct NW Concord, NC",Municipal Park,Yes,https://www.concordnc.gov/Departments/Parks-Recreation/Facilities,NA,NA,NA,NA,NA,Yes,NA,NA,NA,NA,35.4141380431801,-80.5984272467592,,baseball
360,373,404,Frank Liske Park - Cabarrus County,"4001 Stough Rd Concord, NC",County Park,Yes,https://www.cabarruscounty.us/location/frank-liske-park,Yes,Yes,NA,NA,NA,Yes,Yes,NA,Yes,NA,35.360051719753,-80.6272013352079,,baseball
366,379,410,Bakers Creek Park/Greenway - City of Kanpolis,"1275 West A St Kannapolis, NC",Municipal Park,Yes,http://www.kanpolisnc.gov/GovernmentDepartments/ParksRecreation/Parks/tabid/131/Default.aspx,Yes,NA,Yes,NA,NA,Yes,Yes,NA,Yes,NA,35.5128579119937,-80.6322757489019,,baseball
369,382,415,W.W. Flowe Park - City of Concord,"99 Central Heights Dr Concord, NC",Municipal Park,Yes,https://www.concordnc.gov/Departments/Parks-Recreation/Facilities,Yes,NA,NA,NA,NA,Yes,NA,NA,Yes,NA,35.3585534242639,-80.5886254310507,,baseball
371,384,417,Harrisburg Town Park - Town of Harrisburg,"191 Sims Parkway Harrisburg, NC",Municipal Park,Yes,https://www.harrisburgnc.org/departments/parks-recreation/parks-facilities/harrisburg-park,Yes,NA,NA,NA,NA,Yes,NA,NA,Yes,NA,35.3195612584412,-80.6598146080793,,baseball
372,385,418,Stallings Road Park - Town of Harrisburg,"4050 Stallings Rd Harrisburg, NC",Municipal Park,Yes,https://www.harrisburgnc.org/departments/parks-recreation/parks-facilities/stallings-road-park,Yes,NA,NA,NA,NA,Yes,NA,NA,Yes,NA,35.3157167102524,-80.6459588340713,,baseball
374,387,420,Walter Safrit Park - City of Kanpolis,"1415 Bethpage Rd Kannapolis, NC",Municipal Park,Yes,http://www.kanpolisnc.gov/GovernmentDepartments/ParksRecreation/Parks/tabid/131/Default.aspx,Yes,Yes,NA,NA,NA,Yes,NA,NA,Yes,NA,35.4852977608515,-80.6494534960678,,baseball
376,389,423,Marvin Caldwell Park - City of Concord,"362 Georgia St SW Concord, NC",Municipal Park,Yes,http://www.concordnc.gov/Departments/Parks-Recreation/Facilities,Yes,Yes,Yes,Yes,NA,Yes,NA,NA,Yes,NA,35.3926267499257,-80.5827932198796,,baseball
377,390,424,Gibson Ball Park - City of Concord,"265 Ball Park Ct NW Concord, NC",Municipal Park,Yes,https://www.concordnc.gov/Departments/Parks-Recreation/Facilities,NA,NA,NA,NA,NA,Yes,NA,NA,NA,NA,35.4141380431801,-80.5984272467592,,baseball
381,394,430,Frank Liske Park - Cabarrus County,"4001 Stough Rd Concord, NC",County Park,Yes,https://www.cabarruscounty.us/location/frank-liske-park,Yes,Yes,NA,NA,NA,Yes,Yes,NA,Yes,NA,35.360051719753,-80.6272013352079,,baseball
398,411,447,East End Park,"1200 N Alston Ave, Durham NC",Park,Yes,https://www.dprplaymore.org/Facilities/Facility/Details/East-End-Park-20,Yes,NA,Yes,Yes,NA,Yes,NA,NA,Yes,Yes,35.9982748940269,-78.8858012687622,,baseball
402,415,451,Hillside Park,"1301 S Roxboro St, Durham NC",Park,Yes,https://www.dprplaymore.org/Facilities/Facility/Details/Hillside-Park-32,Yes,NA,Yes,Yes,NA,Yes,NA,NA,Yes,Yes,35.98100429933,-78.9044320073297,,baseball
419,433,470,Sherwood Park,"1720 Cheek Rd, Durham NC",Park,Yes,https://www.dprplaymore.org/Facilities/Facility/Details/Sherwood-Park-65,Yes,NA,Yes,NA,NA,Yes,NA,NA,NA,NA,36.0039847457073,-78.8726497658791,,baseball
423,437,474,Valley Springs Park,"3805 Valley Springs Rd, Durham NC",Park,Yes,https://www.dprplaymore.org/Facilities/Facility/Details/Valley-Springs-Park-73,Yes,Yes,NA,NA,NA,Yes,Yes,NA,Yes,NA,36.0531469842974,-78.9577712750651,,baseball
447,461,507,Crest Street Park,"2503 Crest St, Durham NC",Park,Yes,https://www.dprplaymore.org/Facilities/Facility/Details/Crest-Street-Park-14,Yes,NA,Yes,NA,NA,Yes,NA,NA,Yes,NA,36.0129765864658,-78.9383786111222,,baseball
450,464,512,Ailey Young Park,"800 E Juniper Ave, Wake Forest, NC",NA,Yes,http://www.wakeforestnc.gov/ailey-young-park.aspx,Yes,NA,NA,NA,NA,Yes,NA,NA,Yes,NA,35.9826285772075,-78.4966531176233,,baseball
454,468,519,Annie L. Jones Park,"1414 Tarbert Drive, Cary, NC",NA,Yes,http://www.towfcary.org/recreation-enjoyment/parks-greenways-environment/parks/annie-jones-park,Yes,NA,NA,Yes,NA,Yes,NA,NA,NA,NA,35.7604940689245,-78.8114282723995,,baseball
457,471,524,Apex Jaycee Park,451 W Williams St  Apex NC,NA,No,https://www.apexnc.org/797/Apex-Jaycee-Park,Yes,NA,NA,NA,NA,Yes,NA,NA,Yes,NA,35.7306190244926,-78.8598211657138,,baseball
459,473,528,Baileywick Road Park,"9501 Baileywick Rd, Raleigh, NC",NA,Yes,https://raleighnc.gov/places/baileywick-park,Yes,NA,NA,NA,NA,Yes,NA,NA,Yes,NA,35.9102041841061,-78.6675966613908,,baseball
463,478,534,Biltmore Hills Park,"2615 Fitzgerald Dr, Raleigh, NC",NA,Yes,https://raleighnc.gov/places/biltmore-hills-park,Yes,NA,NA,Yes,NA,Yes,NA,NA,Yes,NA,35.7489806222576,-78.6280954931578,,baseball
468,483,541,Buffaloe Road Athletic Park,"5900 Buffaloe Rd, Raleigh, NC",NA,Yes,https://raleighnc.gov/places/buffaloe-road-athletic-park,Yes,NA,NA,NA,NA,Yes,NA,NA,NA,NA,35.8413814820019,-78.5416678640935,,baseball
474,489,547,Caroli Pines Park,"2305 Lake Wheeler Rd, Raleigh, NC",NA,No,https://raleighnc.gov/places/caroli-pines-park,Yes,NA,NA,Yes,Yes,Yes,NA,Yes,Yes,NA,35.7493689132767,-78.6713605945823,,baseball
480,497,556,Cedar Hills Park,"5600 Sweetbriar Dr, Raleigh, NC",NA,No,https://raleighnc.gov/places/cedar-hills-park,Yes,NA,NA,Yes,NA,Yes,Yes,NA,Yes,NA,35.8573587862509,-78.6290711685111,,baseball
501,520,584,Falcon Park,"611 E. Academy Street, Fuquay-Vari, NC",NA,Yes,http://www.fuquay-vari.org/departments-and-services/parks-recreation-and-cultural-resources/parks/falcon-park.html,Yes,NA,NA,NA,NA,Yes,NA,NA,Yes,NA,35.5843287621991,-78.7909305856391,,baseball
508,528,597,Fred Fletcher Park,"805 Washington St, Raleigh, NC",NA,No,https://raleighnc.gov/places/fred-fletcher-park,Yes,NA,NA,Yes,NA,Yes,NA,NA,Yes,NA,35.7938912355814,-78.652576540334593,,baseball
509,529,598,Fred G. Bond Metro Park,"801 High House Road, Cary, NC",NA,Yes,http://www.towfcary.org/Departments/Parks__Recreation___Cultural_Resources/Parks_and_Greenways/Parks/Fred_G__Bond_Metro_Park.htm,NA,NA,NA,NA,NA,Yes,NA,NA,Yes,NA,35.7853843402225,-78.8207535085364,,baseball
513,535,605,Garner Recreatiol Park,"221 East Garner Road, Garner NC, 27529",NA,Yes,http://www.garnernc.gov/Departments/Parks%20and%20Recreation/Parks.aspx?ID=5,Yes,NA,NA,Yes,NA,Yes,NA,NA,NA,NA,35.7066103189939,-78.603413613341,,baseball
517,541,612,Green Road Park,"4201 Green Rd, Raleigh NC",NA,Yes,https://raleighnc.gov/places/green-road-park,Yes,NA,NA,Yes,Yes,Yes,NA,NA,Yes,NA,35.8403748312079,-78.5907977930654,,baseball
523,547,618,Harold D. Ritter Park,"301 Lochmere Drive West, Cary, NC",NA,Yes,http://www.towfcary.org/Departments/Parks__Recreation___Cultural_Resources/Parks_and_Greenways/Parks/Harold_D__Ritter_Park.htm,NA,NA,NA,NA,NA,Yes,NA,NA,Yes,NA,35.728610499637,-78.7745810486004,,baseball
532,556,630,Holding Park,"133 W Owen Ave, Wake Forest, NC",NA,No,http://www.wakeforestnc.gov/holding-park.aspx,Yes,NA,NA,Yes,NA,Yes,NA,NA,Yes,NA,35.977840350406,-78.5129834314606,,baseball
533,557,631,Honeycutt Park,"1032 Clear Creek Farm Rd, Raleigh, NC",NA,Yes,https://raleighnc.gov/places/honeycutt-park,Yes,NA,NA,NA,Yes,Yes,NA,NA,Yes,NA,35.9040136822878,-78.6261204843865,,baseball
537,561,637,Isabella Cann Park,"2601 Kilgore Ave, Raleigh, NC",NA,Yes,https://raleighnc.gov/places/isabella-cann-park,Yes,NA,NA,NA,NA,Yes,NA,NA,Yes,NA,35.7926554738365,-78.6673305210167,,baseball
539,563,639,J.B. Flaherty Park,"1226 N White St, Wake Forest, NC",NA,Yes,http://www.wakeforestnc.gov/residents-parksrecreation_facilities_flaherty.aspx,NA,NA,NA,Yes,NA,Yes,NA,Yes,Yes,NA,35.9937019254658,-78.4911404813396,,baseball
542,566,642,Jaycee Park,"2405 Wade Ave, Raleigh, NC",NA,No,https://raleighnc.gov/places/jaycee-park,Yes,NA,NA,Yes,Yes,Yes,NA,NA,Yes,NA,35.8003876220457,-78.6632799057196,,baseball
543,567,643,John Chavis Memorial Park,"505 Martin Luther King Jr Blvd, Raleigh, NC",NA,No,https://raleighnc.gov/places/john-chavis-memorial-park,Yes,NA,NA,Yes,NA,Yes,NA,NA,Yes,NA,35.7681292372864,-78.6300519684482,,baseball
548,572,649,Kelly Road Park,"1609 Kelly Rd., Apex, NC",NA,No,https://www.apexnc.org/799/Kelly-Road-Park,Yes,NA,NA,Yes,NA,Yes,NA,NA,Yes,NA,35.7325318479925,-78.8955021341229,,baseball
549,573,650,Kentwood Park,"4531 Kaplan Dr, Raleigh, NC",NA,Yes,https://raleighnc.gov/places/kentwood-park,Yes,NA,NA,Yes,NA,Yes,Yes,NA,Yes,NA,35.7768682013035,-78.6961841693236,,baseball
552,576,654,Knightdale Community Park,"1137 Old Knight Rd, Knightdale, NC",NA,No,http://www.knightdalenc.gov/index.aspx?page=347,NA,NA,NA,NA,NA,Yes,NA,NA,NA,NA,35.8101329408723,-78.4719807422003,,baseball
554,579,658,Knightdale Station Park,"810 rth First Avenue, Knightdale, NC",NA,No,http://www.knightdalenc.gov/index.aspx?page=562,Yes,NA,NA,NA,NA,Yes,NA,Yes,Yes,NA,35.7974848274863,-78.47512045758,,baseball
560,585,665,Lake Lynn Park - Lynn Rd Entrance,"7921 Ray Rd, Raleigh, NC",NA,No,https://raleighnc.gov/places/lake-lynn-park,Yes,NA,NA,Yes,NA,Yes,NA,NA,NA,NA,35.8898946573249,-78.6972559422496,,baseball
561,586,666,Lake Lynn Park - Ray Rd Entrance,"7921 Ray Rd, Raleigh, NC",NA,No,https://raleighnc.gov/places/lake-lynn-park,Yes,NA,NA,Yes,NA,Yes,NA,NA,NA,NA,35.8898946573249,-78.6972559422496,,baseball
566,591,671,Laurel Hills Park,"3808 Edwards Mill Rd, Raleigh, NC",NA,Yes,https://raleighnc.gov/places/laurel-hills-park,Yes,NA,NA,NA,NA,Yes,NA,NA,Yes,NA,35.8308155862823,-78.7003799325912,,baseball
568,593,676,Lion's Park,"815 Tanglewood Drive, Cary, NC",NA,Yes,http://www.towfcary.org/Departments/Parks__Recreation___Cultural_Resources/Parks_and_Greenways/Parks/Lions_Park.htm,Yes,NA,NA,NA,NA,Yes,NA,NA,NA,NA,35.7754089013723,-78.768671259527,,baseball
569,594,677,Lions Park,"516 Dennis Ave, Raleigh, NC",NA,No,https://raleighnc.gov/places/lions-park,Yes,NA,NA,Yes,NA,Yes,NA,NA,Yes,NA,35.7984586457392,-78.6157921179623,,baseball
576,601,685,Marsh Creek Park,"3016 New Hope Rd, Raleigh, NC",NA,Yes,https://raleighnc.gov/places/marsh-creek-park,Yes,NA,NA,NA,NA,Yes,NA,NA,Yes,NA,35.8226359232359,-78.5691215995878,,baseball
579,604,688,Method Community Park,"514 Method Rd, Raleigh, NC",NA,No,https://raleighnc.gov/places/method-community-park,Yes,NA,NA,Yes,NA,Yes,NA,NA,Yes,NA,35.7931019477483,-78.6937440251474,,baseball
582,607,693,Millbrook Exchange Park,"1815 Spring Forest Rd, Raleigh, NC",NA,No,https://raleighnc.gov/places/millbrook-exchange-park,Yes,NA,NA,Yes,NA,Yes,NA,Yes,Yes,NA,35.8666084931912,-78.6081263250014,,baseball
583,608,694,Mills Park,"425 Mills Park Drive, Cary, NC",NA,Yes,http://www.towfcary.org/recreation-enjoyment/parks-greenways-environment/parks/mills-school-park,Yes,NA,NA,NA,NA,Yes,NA,NA,NA,NA,35.8127352221079,-78.9026608580616,,baseball
586,611,701,Morrisville Community Park,"1520 Morrisville Parkway, Morrisville NC",NA,Yes,http://www.towfmorrisville.org/government/departments-services/parks-recreation-cultural-resources/parks-and-greenways/morrisville-community-park,Yes,NA,NA,NA,NA,Yes,NA,NA,Yes,NA,35.8120027343353,-78.8448730543497,,baseball
590,615,706,rth Hills Park,"100 Chowan Cir, Raleigh, NC",NA,Yes,https://raleighnc.gov/places/rth-hills-park,Yes,NA,NA,Yes,NA,Yes,NA,NA,Yes,NA,35.8402913217394,-78.6558580993262,,baseball
592,617,709,Oakwood Park,"910 Brookside Dr, Raleigh, NC",NA,Yes,https://raleighnc.gov/places/oakwood-park,NA,NA,NA,NA,NA,Yes,NA,Yes,Yes,NA,35.7893512377987,-78.6260942979896,,baseball
594,619,711,Optimist Park,"5900 Whittier Dr, Raleigh, NC",NA,Yes,https://raleighnc.gov/places/optimist-park,Yes,NA,NA,Yes,NA,Yes,NA,NA,NA,NA,35.8625561709723,-78.6435880807904,,baseball
602,628,722,Pullen Arts Center,"105 Pullen Rd, Raleigh, NC",NA,No,https://raleighnc.gov/places/pullen-arts-center,NA,NA,NA,NA,NA,Yes,NA,NA,NA,NA,35.7826787757379,-78.665464806188,,baseball
610,636,732,Roberts Park,"1300 E Martin St, Raleigh, NC",NA,No,https://raleighnc.gov/places/roberts-park,Yes,NA,NA,Yes,NA,Yes,NA,NA,Yes,NA,35.7761753219216,-78.619483734309,,baseball
618,645,742,Sanderford Road Park,"2623 Sanderford Rd, Raleigh, NC",NA,No,https://raleighnc.gov/places/sanderford-road-park,Yes,NA,NA,Yes,NA,Yes,NA,NA,Yes,NA,35.7434470805997,-78.6139055004339,,baseball
623,650,747,Shiloh Park/Luther Green Center,"922 Church Street, Morrisville NC",NA,Yes,http://www.towfmorrisville.org/government/departments-services/parks-recreation-cultural-resources/parks-and-greenways/shiloh-park-luther-green-center,Yes,NA,NA,NA,NA,Yes,NA,NA,Yes,NA,35.8490557704271,-78.842352458995,,baseball
624,651,749,South Garner Park,"1210 Poole Drive, Garner NC, 27529",NA,Yes,http://www.garnernc.gov/Departments/Parks%20and%20Recreation/Parks.aspx?ID=24,Yes,NA,NA,Yes,NA,Yes,NA,NA,NA,NA,35.693711175753,-78.6242597723923,,baseball
625,652,750,South Park,"900 South Main Street, Fuquay-Vari, NC",NA,Yes,http://www.fuquay-vari.org/departments-and-services/parks-recreation-and-cultural-resources/parks/south-park.html,Yes,NA,NA,NA,NA,Yes,NA,NA,Yes,NA,35.5720379206201,-78.800672604008,,baseball
626,653,752,Spring Forest Road Park,"4203 Spring Forest Rd, Raleigh, NC",NA,No,https://raleighnc.gov/places/spring-forest-road-park,Yes,NA,NA,Yes,NA,Yes,NA,NA,Yes,NA,35.8561406068729,-78.5716995313947,,baseball
636,664,765,Ting Park,"1151 N. Main St., Holly Springs NC",NA,No,https://www.hollyspringsnc.us/607/Ting-Park,NA,NA,NA,Yes,NA,Yes,NA,NA,NA,NA,35.6668050898292,-78.8353152881776,,baseball
639,667,768,Tyler Run Park,"830 Pineview Dr, Wake Forest, NC",NA,No,http://www.wakeforestnc.gov/tyler-run-park.aspx,Yes,NA,NA,NA,NA,Yes,NA,NA,Yes,NA,35.9716292876673,-78.521170578708,,baseball
641,669,770,USA Baseball at Brooks Park,"7445 Green Hope School Road, Cary, NC",NA,Yes,http://www.towfcary.org/recreation-enjoyment/facilities/usa-baseball-tiol-training-complex,NA,NA,NA,NA,NA,Yes,NA,NA,NA,NA,35.8021576801756,-78.8921555303047,,baseball
648,677,779,Walnut Creek Softball Complex,"1201 Sunnybrook Rd, Raleigh, NC",NA,No,https://raleighnc.gov/places/walnut-creek-athletic-complex,NA,NA,NA,NA,NA,Yes,NA,NA,NA,NA,35.7640632098872,-78.5822198366684,,baseball
652,681,783,Wendell Park,"601 W. Third Street, Wendell, NC",NA,Yes,http://www.towfwendell.com/departments/parks-and-recreation,Yes,NA,NA,Yes,NA,Yes,Yes,Yes,Yes,NA,35.7805463738642,-78.3610290224412,,baseball
660,690,796,Worthdale Park,"1001 Cooper Rd, Raleigh, NC",NA,Yes,https://raleighnc.gov/places/worthdale-park,Yes,NA,NA,Yes,NA,Yes,NA,NA,NA,NA,35.7636737987783,-78.5874399641523,,baseball
664,694,25,Revolution Park,"2425 REVOLUTION PARK DR CHARLOTTE, NC 28208",Community,Yes,https://www.mecknc.gov/parkandrec/pages/home.aspx?redirect=charmeck,Yes,NA,NA,NA,NA,Yes,NA,NA,NA,NA,35.2159251884163,-80.8748912008799,,baseball
669,699,229,Jack Hughes Park,"330 JACK HUGHES LN PINEVILLE, NC 28134",Town Park,Yes,http://www.pinevillenc.gov/Departments/ParksRecreaton/tabid/103/Default.aspx,Yes,NA,NA,NA,NA,Yes,NA,NA,Yes,NA,35.0852438956126,-80.8947405386374,,baseball
677,707,370,Abernathy Park,"205 GLENDALE DR HUNTERSVILLE, NC 28078",Town Park,Yes,https://www.huntersville.org/162/Parks-Recreation,Yes,NA,Yes,NA,NA,Yes,NA,NA,NA,NA,35.4184649501273,-80.837768496686,,baseball
678,708,385,Hartsell Park and Rec Center - City of Concord,"60 Hartsell School Rd Concord, NC",Municipal Park,Yes,http://www.concordnc.gov/Departments/Parks-Recreation/Facilities,Yes,NA,Yes,NA,NA,Yes,NA,NA,Yes,NA,35.3914458930281,-80.5919547036826,,baseball
679,709,396,Les Myers Park - City of Concord,"338 Lawndale Ave SE Concord, NC",Municipal Park,Yes,http://www.concordnc.gov/Departments/Parks-Recreation/Facilities,Yes,NA,Yes,Yes,NA,Yes,NA,NA,Yes,NA,35.394983238216,-80.5632361436357,,baseball
681,711,411,Hartsell Park and Rec Center - City of Concord,"60 Hartsell School Rd Concord, NC",Municipal Park,Yes,http://www.concordnc.gov/Departments/Parks-Recreation/Facilities,Yes,NA,Yes,NA,NA,Yes,NA,NA,Yes,NA,35.3914458930281,-80.5919547036826,,baseball
682,712,422,Les Myers Park - City of Concord,"338 Lawndale Ave SE Concord, NC",Municipal Park,Yes,http://www.concordnc.gov/Departments/Parks-Recreation/Facilities,Yes,NA,Yes,Yes,NA,Yes,NA,NA,Yes,NA,35.394983238216,-80.5632361436357,,baseball
694,724,522,Apex Community Park,"2200 Laura Duncan Rd., Apex, NC",NA,Yes,http://www.apexnc.org/795/Apex-Community-Park,Yes,NA,NA,Yes,Yes,Yes,NA,NA,Yes,NA,35.7357782830882,-78.8430655175109,,baseball
704,734,625,Heritage High Park,"1140 Forestville Rd, Wake Forest, NC",NA,Yes,http://www.wakeforestnc.gov/heritage-high-park.aspx,NA,NA,NA,Yes,NA,Yes,NA,NA,NA,NA,35.9401343334153,-78.5073647827447,,baseball
705,735,634,Hunter Street Park,"1250 Ambergate Station, Apex, NC",NA,Yes,https://www.apexnc.org/798/Hunter-Street-Park,Yes,NA,NA,NA,NA,Yes,NA,Yes,Yes,NA,35.7379826767863,-78.8467655404707,,baseball
713,744,713,Parrish Womble Park,"1201 Grigsby Ave., Holly Springs, NC",NA,Yes,http://www.hollyspringsnc.us/index.aspx?NID=332,Yes,NA,NA,NA,NA,Yes,NA,NA,Yes,NA,35.6419195101063,-78.8306209810899,,baseball
714,745,727,Rand Mill Park,"508 Rand Mill Road, Garner NC, 27529",NA,Yes,http://www.garnernc.gov/Departments/Parks%20and%20Recreation/Parks.aspx?ID=23,Yes,NA,NA,NA,NA,Yes,NA,NA,Yes,NA,35.6997464351456,-78.6051453675289,,baseball
732,16,494,Sw Hill Road Park,"619 Sw Hill Rd, Durham NC",Park,No,https://www.dprplaymore.org/Facilities/Facility/Details/Sw-Hill-Road-Park-66,NA,Yes,NA,NA,NA,Yes,NA,NA,NA,NA,36.11068,-78.89044,,baseball
746,3,72,James Hoyt Wilhelm Park,"19018 SMITH CR CORNELIUS, NC 28031",Town Park,Yes,https://www.cornelius.org/103/Parks-Arts-Recreation-Culture,NA,NA,Yes,NA,NA,Yes,NA,NA,NA,NA,35.480885,-80.864699,,baseball
752,18,511,Action Park,"609 Wake Chapel Road, Fuquay-Vari, NC",NA,Yes,http://www.fuquay-vari.org/departments-and-services/parks-recreation-and-cultural-resources/parks/action-park-description.html,Yes,NA,NA,Yes,NA,Yes,NA,NA,NA,NA,35.591424,-78.801715,,baseball
754,22,538,Brentwood Park,"3315 Vinson Ct, Raleigh, NC",NA,No,https://raleighnc.gov/places/brentwood-park,Yes,NA,NA,Yes,NA,Yes,NA,NA,Yes,NA,35.82849982,-78.59954789,,baseball
755,23,557,Centennial Park,"1015 New Bethel Church Road, Garner NC, 27529",NA,Yes,http://www.garnernc.gov/Departments/Parks%20and%20Recreation/Parks.aspx?ID=1,Yes,NA,NA,NA,NA,Yes,NA,NA,Yes,NA,35.669359,-78.6046,,baseball
759,37,674,Lexie Lane Park,"301 N Dixon Street, Cary, NC",NA,Yes,http://www.towfcary.org/Departments/Parks__Recreation___Cultural_Resources/Parks_and_Greenways/Parks/Lexie_Lane_Park.htm,NA,NA,NA,NA,NA,Yes,NA,NA,NA,NA,35.788974,-78.789374,,baseball
760,43,751,Southgate Park,"1801 Proctor Rd, Raleigh, NC",NA,No,https://raleighnc.gov/places/southgate-park,Yes,NA,NA,NA,Yes,Yes,NA,NA,Yes,NA,35.75511244,-78.60782548,,baseball
3,3,6,Camp Greene Park,"1221 ALLEGHANY ST CHARLOTTE, NC 28208",Community,Yes,https://www.mecknc.gov/parkandrec/pages/home.aspx?redirect=charmeck,Yes,NA,Yes,NA,NA,NA,NA,NA,NA,NA,35.237736929795,-80.8886982300175,,basketball
4,4,7,Lincoln Heights Park,"1819 CATHERINE SIMMONS AV CHARLOTTE, NC 28216",Neighborhood,No,https://www.mecknc.gov/parkandrec/pages/home.aspx?redirect=charmeck,Yes,NA,Yes,NA,NA,NA,NA,NA,Yes,NA,35.2633224661889,-80.8484228669175,,basketball
6,6,9,Solomans Park,"3299 VENICE ST CHARLOTTE, NC 28216",Neighborhood,No,https://www.mecknc.gov/parkandrec/pages/home.aspx?redirect=charmeck,Yes,NA,Yes,NA,NA,NA,NA,NA,Yes,NA,35.2608866569952,-80.8711737270287,,basketball
9,9,12,West Charlotte Recreation Center,"2401 KENDALL DR CHARLOTTE, NC 28216",Recreation Center,Yes,https://www.mecknc.gov/parkandrec/pages/home.aspx?redirect=charmeck,NA,NA,Yes,NA,NA,NA,NA,NA,NA,NA,35.2686015757677,-80.8566927230437,,basketball
10,10,13,West Charlotte Park,"2401 KENDALL DR CHARLOTTE, NC 28216",Neighborhood,No,https://www.mecknc.gov/parkandrec/pages/home.aspx?redirect=charmeck,Yes,NA,Yes,NA,NA,NA,NA,NA,Yes,Yes,35.2686015757677,-80.8566927230437,,basketball
15,15,18,Tom Hunter Park,"919 TOM HUNTER RD CHARLOTTE, NC 28213",Neighborhood,No,https://www.mecknc.gov/parkandrec/pages/home.aspx?redirect=charmeck,Yes,NA,Yes,NA,NA,NA,NA,NA,Yes,NA,35.2782432019048,-80.7814112027437,,basketball
16,16,19,Ramblewood Soccer Complex,"10200 NATIONS FORD RD CHARLOTTE, NC 28273",Community,Yes,https://www.mecknc.gov/parkandrec/pages/home.aspx?redirect=charmeck,Yes,NA,Yes,NA,NA,Yes,NA,NA,NA,NA,35.1204747717008,-80.903420412006,,basketball
22,22,26,Springfield Park,"6700 DEANWOOD PL CHARLOTTE, NC 28217",Neighborhood,No,https://www.mecknc.gov/parkandrec/pages/home.aspx?redirect=charmeck,NA,NA,Yes,NA,NA,NA,NA,NA,Yes,NA,35.1598888697237,-80.9033668686102,,basketball
25,25,29,Greenville Park,"1232 SPRING ST CHARLOTTE, NC 28206",Neighborhood,No,https://www.mecknc.gov/parkandrec/pages/home.aspx?redirect=charmeck,Yes,NA,Yes,NA,NA,Yes,NA,NA,NA,NA,35.2452422699172,-80.8436376599257,,basketball
36,36,42,Reedy Creek Park,"2900 ROCKY RIVER RD CHARLOTTE, NC 28215",Regional,Yes,https://www.mecknc.gov/parkandrec/pages/home.aspx?redirect=charmeck,Yes,NA,Yes,NA,Yes,Yes,Yes,Yes,NA,NA,35.2759946810159,-80.7180725530453,,basketball
37,37,43,Clanton Park,"1520 CLANTON RD CHARLOTTE, NC 28217",Community,Yes,https://www.mecknc.gov/parkandrec/pages/home.aspx?redirect=charmeck,Yes,NA,Yes,NA,NA,Yes,NA,NA,NA,NA,35.2066252414352,-80.8936130409602,,basketball
41,41,47,Grayson Park,"750 BEAL ST CHARLOTTE, NC 28211",Neighborhood,No,https://www.mecknc.gov/parkandrec/pages/home.aspx?redirect=charmeck,Yes,NA,Yes,Yes,NA,Yes,NA,NA,NA,NA,35.1903948291116,-80.7965304408878,,basketball
46,46,52,Oakhurst Park,"3533 CRAIG AV CHARLOTTE, NC 28211",Neighborhood,No,https://www.mecknc.gov/parkandrec/pages/home.aspx?redirect=charmeck,Yes,NA,Yes,NA,NA,Yes,NA,NA,Yes,NA,35.1911805017912,-80.7896442676187,,basketball
49,49,55,Eastway Park,"423 EASTWAY DR CHARLOTTE, NC 28215",Community,Yes,https://www.mecknc.gov/parkandrec/pages/home.aspx?redirect=charmeck,Yes,NA,Yes,NA,Yes,NA,NA,NA,Yes,NA,35.2520451888124,-80.7803775491842,,basketball
63,63,69,Methodist Home Park,"3200 SHAMROCK DR CHARLOTTE, NC 28205",Neighborhood,No,https://www.mecknc.gov/parkandrec/pages/home.aspx?redirect=charmeck,Yes,NA,Yes,NA,NA,Yes,NA,NA,Yes,NA,35.2348607769751,-80.7716774259983,,basketball
69,69,76,Torrence Chapel Park,"21309 TORRENCE CHAPEL RD CORNELIUS, NC 28031",Town Park,Yes,https://www.cornelius.org/103/Parks-Arts-Recreation-Culture,Yes,NA,Yes,Yes,NA,Yes,NA,NA,Yes,NA,35.4918604131224,-80.8783170202821,,basketball
79,81,88,Biddleville Park,"500 ANDRILL TR CHARLOTTE, NC 28216",Neighborhood,No,https://www.mecknc.gov/parkandrec/pages/home.aspx?redirect=charmeck,NA,NA,Yes,NA,NA,Yes,NA,NA,NA,NA,35.2434306139021,-80.850311208276,,basketball
80,82,89,Southside Park,"645 REMOUNT RD CHARLOTTE, NC 28203",Community,No,https://www.mecknc.gov/parkandrec/pages/home.aspx?redirect=charmeck,Yes,NA,Yes,NA,NA,NA,NA,NA,NA,NA,35.2082580403664,-80.8727927408789,,basketball
82,84,91,Theresea C. Elder Park,"6325 ROCKWELL CHURCH RD CHARLOTTE, NC 28269",Neighborhood,No,https://www.mecknc.gov/parkandrec/pages/home.aspx?redirect=charmeck,Yes,NA,Yes,NA,NA,NA,NA,NA,NA,NA,35.3054857494231,-80.8004617449486,,basketball
83,86,93,Carmel Road Park,"2365 CARMEL RD CHARLOTTE, NC 28226",Neighborhood,Yes,https://www.mecknc.gov/parkandrec/pages/home.aspx?redirect=charmeck,Yes,NA,Yes,Yes,NA,Yes,NA,NA,NA,NA,35.13450706392,-80.8063645991298,,basketball
85,88,95,Pearl Street Park,"602 KENILWORTH AV CHARLOTTE, NC 28204",Neighborhood,Yes,https://www.mecknc.gov/parkandrec/pages/home.aspx?redirect=charmeck,Yes,NA,Yes,NA,NA,NA,NA,NA,NA,NA,35.2112882110366,-80.8371653409952,,basketball
88,91,98,Olde Providence Park,"3800 REA RD CHARLOTTE, NC 28226",Community,No,https://www.mecknc.gov/parkandrec/pages/home.aspx?redirect=charmeck,Yes,NA,Yes,NA,NA,Yes,NA,NA,NA,NA,35.1098472764231,-80.7984348470998,,basketball
89,92,99,Tryon Hills Park,"220 W 30TH ST CHARLOTTE, NC 28206",Neighborhood,No,https://www.mecknc.gov/parkandrec/pages/home.aspx?redirect=charmeck,Yes,NA,Yes,NA,NA,NA,NA,NA,NA,NA,35.2499031386709,-80.8171120446029,,basketball
91,94,101,T.M. Winget Park,"12025 WINGET RD CHARLOTTE, NC 28278",Regional,Yes,https://www.mecknc.gov/parkandrec/pages/home.aspx?redirect=charmeck,Yes,NA,Yes,NA,Yes,Yes,Yes,NA,Yes,NA,35.1301110200499,-81.0015366648542,,basketball
98,101,108,Westerly Hills Park,"3970 BRISTOL DR CHARLOTTE, NC 28208",Neighborhood,No,https://www.mecknc.gov/parkandrec/pages/home.aspx?redirect=charmeck,Yes,NA,Yes,NA,NA,NA,NA,NA,NA,NA,35.2301556740101,-80.9036465499016,,basketball
104,107,114,Tuckaseegee Park,"4820 TUCKASEEGEE RD CHARLOTTE, NC 28208",Neighborhood,Yes,https://www.mecknc.gov/parkandrec/pages/home.aspx?redirect=charmeck,Yes,NA,Yes,Yes,NA,Yes,NA,NA,NA,NA,35.2480697171318,-80.906785187768,,basketball
107,110,117,Frazier Park,"1201 W 4TH ST EXT CHARLOTTE, NC 28202",Neighborhood,No,https://www.mecknc.gov/parkandrec/pages/home.aspx?redirect=charmeck,Yes,NA,Yes,Yes,NA,NA,NA,Yes,NA,NA,35.2327717879066,-80.8531870802637,,basketball
118,121,131,Lakewood Park,"3207 KALYNNE ST CHARLOTTE, NC 28208",Neighborhood,No,https://www.mecknc.gov/parkandrec/pages/home.aspx?redirect=charmeck,Yes,NA,Yes,NA,NA,Yes,NA,NA,NA,NA,35.2529120593808,-80.8784434314007,,basketball
122,127,137,Pineville Lake Park,"909 LAKEVIEW DR PINEVILLE, NC 28134",Town Park,Yes,http://www.pinevillenc.gov/Departments/ParksRecreaton/tabid/103/Default.aspx,Yes,NA,Yes,NA,NA,NA,NA,Yes,NA,Yes,35.0800275891795,-80.8949196846073,,basketball
123,128,138,Harrisburg Road Park,"7701 HARRISBURG RD CHARLOTTE, NC 28215",Neighborhood,No,https://www.mecknc.gov/parkandrec/pages/home.aspx?redirect=charmeck,NA,NA,Yes,NA,NA,NA,NA,NA,NA,NA,35.2199636902667,-80.6862442237285,,basketball
125,130,140,Archdale Park,"5400 CHERRYCREST LN CHARLOTTE, NC 28217",Neighborhood,No,https://www.mecknc.gov/parkandrec/pages/home.aspx?redirect=charmeck,Yes,NA,Yes,NA,NA,NA,NA,NA,NA,NA,35.1512032759967,-80.8868699620712,,basketball
134,139,150,Wingate Park,"2721 MAYFAIR AV CHARLOTTE, NC 28208",Neighborhood,No,https://www.mecknc.gov/parkandrec/pages/home.aspx?redirect=charmeck,Yes,NA,Yes,NA,NA,NA,NA,NA,NA,NA,35.2138000652046,-80.9082171225177,,basketball
142,147,159,North Charlotte Park,"3400 SPENCER ST CHARLOTTE, NC 28205",Neighborhood,No,https://www.mecknc.gov/parkandrec/pages/home.aspx?redirect=charmeck,Yes,NA,Yes,NA,NA,NA,NA,NA,Yes,NA,35.2460372110992,-80.797840878796407,,basketball
153,158,171,Sixteenth Street Park,"620 E 16TH ST CHARLOTTE, NC 28206",Neighborhood,No,https://www.mecknc.gov/parkandrec/pages/home.aspx?redirect=charmeck,NA,NA,Yes,NA,NA,NA,NA,NA,NA,NA,35.2327270385701,-80.8238930997919,,basketball
155,161,174,Colonial Park,"219 PROVIDENCE RD CHARLOTTE, NC 28207",Neighborhood,No,https://www.mecknc.gov/parkandrec/pages/home.aspx?redirect=charmeck,Yes,NA,Yes,Yes,NA,NA,NA,NA,NA,NA,35.2075701976983,-80.8241324420413,,basketball
160,166,180,William R. Davie Park,"4635 PINEVILLE-MATTHEWS RD CHARLOTTE, NC 28226",Regional,Yes,https://www.mecknc.gov/parkandrec/pages/home.aspx?redirect=charmeck,Yes,NA,Yes,NA,Yes,Yes,NA,Yes,Yes,NA,35.0893538838549,-80.8060039688839,,basketball
161,167,181,Sedgefield Park,"600 ELMHURST RD CHARLOTTE, NC 28209",Neighborhood,No,https://www.mecknc.gov/parkandrec/pages/home.aspx?redirect=charmeck,Yes,NA,Yes,Yes,NA,NA,NA,NA,Yes,NA,35.1977573838979,-80.859663439273,,basketball
163,169,183,Derita Park,"3509 FREW RD CHARLOTTE, NC 28206",Community,No,https://www.mecknc.gov/parkandrec/pages/home.aspx?redirect=charmeck,Yes,NA,Yes,NA,NA,NA,NA,NA,Yes,NA,35.2580411419468,-80.8068232607448,,basketball
168,174,188,Veterans Park,"2136 CENTRAL AV CHARLOTTE, NC 28205",Neighborhood,Yes,https://www.mecknc.gov/parkandrec/pages/home.aspx?redirect=charmeck,Yes,NA,Yes,Yes,NA,Yes,NA,NA,Yes,Yes,35.2197686596828,-80.8049350943288,,basketball
175,181,195,Waddell Street Park,"1505 WADDELL ST CHARLOTTE, NC 28216",Neighborhood,No,https://www.mecknc.gov/parkandrec/pages/home.aspx?redirect=charmeck,Yes,NA,Yes,NA,NA,NA,NA,NA,NA,NA,35.2549107727102,-80.8459753735803,,basketball
176,182,196,Huntingtowne Farms Park,"2200 RAMBLEWOOD LN CHARLOTTE, NC 28210",Community,No,https://www.mecknc.gov/parkandrec/pages/home.aspx?redirect=charmeck,Yes,NA,Yes,Yes,NA,NA,NA,NA,Yes,NA,35.1277799364726,-80.8635794508203,,basketball
182,190,205,Alexander Park,"739 E 12TH ST CHARLOTTE, NC 28206",Neighborhood,Yes,https://www.mecknc.gov/parkandrec/pages/home.aspx?redirect=charmeck,Yes,NA,Yes,Yes,NA,NA,NA,NA,NA,NA,35.227272416784,-80.8277768842611,,basketball
183,191,206,Cherry Park,"501 S TORRENCE ST CHARLOTTE, NC 28204",Neighborhood,No,https://www.mecknc.gov/parkandrec/pages/home.aspx?redirect=charmeck,Yes,NA,Yes,NA,NA,Yes,NA,NA,NA,NA,35.2102973398719,-80.8328275360477,,basketball
195,203,218,Crews Recreation Center,"1201 CREWS RD MATTHEWS, NC 28105",Recreation Center,Yes,https://www.matthewsnc.gov/pview.aspx?id=20727&catid=0,NA,NA,Yes,NA,NA,NA,NA,NA,NA,NA,35.1240037500538,-80.7227162305422,,basketball
203,211,226,Belle Johnston Community Center,"1000 JOHNSTON DR PINEVILLE, NC 28134",Recreation Center,Yes,http://www.pinevillenc.gov/Departments/ParksRecreaton/tabid/103/Default.aspx,NA,NA,Yes,NA,Yes,NA,NA,NA,NA,NA,35.078912353583,-80.8919718784077,,basketball
206,214,230,Anita Stroud Park,"2215 DOUBLE OAKS RD CHARLOTTE, NC 28206",Neighborhood,No,https://www.mecknc.gov/parkandrec/pages/home.aspx?redirect=charmeck,Yes,NA,Yes,NA,NA,NA,NA,NA,NA,NA,35.2518059411308,-80.8416344726053,,basketball
213,221,237,Allen Hills Park,"4701 CHEVIOT RD CHARLOTTE, NC 28269",Neighborhood,Yes,https://www.mecknc.gov/parkandrec/pages/home.aspx?redirect=charmeck,Yes,NA,Yes,NA,NA,Yes,NA,NA,Yes,NA,35.2861681136825,-80.8178799039866,,basketball
221,229,245,Colonel Francis J. Beatty Park,"4330 WEDDINGTON RD CHARLOTTE, NC 28105",Regional,Yes,https://www.mecknc.gov/parkandrec/pages/home.aspx?redirect=charmeck,Yes,NA,Yes,Yes,Yes,Yes,NA,NA,Yes,NA,35.0678580985465,-80.7287248849222,,basketball
229,237,253,Firestone Park,"3501 FIRESTONE DR CHARLOTTE, NC 28216",Community,No,https://www.mecknc.gov/parkandrec/pages/home.aspx?redirect=charmeck,Yes,NA,Yes,NA,NA,NA,NA,NA,NA,NA,35.2879211293776,-80.8725633377982,,basketball
232,240,256,Druid Hills Park,"2801 POINSETT ST CHARLOTTE, NC 28206",Neighborhood,No,https://www.mecknc.gov/parkandrec/pages/home.aspx?redirect=charmeck,Yes,NA,Yes,NA,NA,NA,NA,NA,NA,NA,35.2585394886815,-80.8309670346905,,basketball
234,242,258,Hornets Nest Park,"6301 BEATTIES FORD RD CHARLOTTE, NC 28216",Regional,Yes,https://www.mecknc.gov/parkandrec/pages/home.aspx?redirect=charmeck,Yes,NA,Yes,Yes,Yes,Yes,Yes,NA,NA,NA,35.3200202859571,-80.8651414799234,,basketball
235,243,259,Eva B. Barber Park,"3801 GOSSETT AV CHARLOTTE, NC 28208",Neighborhood,No,https://www.mecknc.gov/parkandrec/pages/home.aspx?redirect=charmeck,Yes,NA,Yes,NA,Yes,NA,NA,NA,NA,NA,35.2608656236362,-80.882987830168,,basketball
239,247,263,Howie Acres Park,"1001 TREMBETH DR CHARLOTTE, NC 28205",Neighborhood,No,https://www.mecknc.gov/parkandrec/pages/home.aspx?redirect=charmeck,Yes,NA,Yes,NA,NA,NA,NA,NA,NA,NA,35.2496852895018,-80.7853835499018,,basketball
241,249,265,Independence Park,"1631 PARK DR CHARLOTTE, NC 28204",Neighborhood,No,https://www.mecknc.gov/parkandrec/pages/home.aspx?redirect=charmeck,Yes,NA,Yes,Yes,Yes,NA,NA,NA,Yes,NA,35.2156267772641,-80.8260922592987,,basketball
244,252,268,L.C. Coleman Park,"1501 MCDONALD ST CHARLOTTE, NC 28216",Neighborhood,Yes,https://www.mecknc.gov/parkandrec/pages/home.aspx?redirect=charmeck,Yes,NA,Yes,NA,NA,Yes,NA,NA,NA,NA,35.2584567900778,-80.8616184845754,,basketball
246,254,270,Latta Park,"601 E PARK AV CHARLOTTE, NC 28203",Community,Yes,https://www.mecknc.gov/parkandrec/pages/home.aspx?redirect=charmeck,Yes,NA,Yes,Yes,Yes,NA,NA,NA,Yes,Yes,35.2099897827597,-80.8513997029925,,basketball
253,261,277,Midwood Park,"2100 WILHELMINA AV CHARLOTTE, NC 28205",Neighborhood,Yes,https://www.mecknc.gov/parkandrec/pages/home.aspx?redirect=charmeck,Yes,NA,Yes,Yes,NA,Yes,NA,NA,Yes,NA,35.2297559934979,-80.8024808896841,,basketball
254,262,278,Mason Wallace Park,"7301 MONROE RD CHARLOTTE, NC 28212",Community,No,https://www.mecknc.gov/parkandrec/pages/home.aspx?redirect=charmeck,Yes,NA,Yes,Yes,NA,Yes,NA,NA,NA,NA,35.1689739107622,-80.7559792358852,,basketball
255,263,279,North Mecklenburg Park,"16131 OLD STATESVILLE RD HUNTERSVILLE, NC 28078",Town Park,Yes,https://www.huntersville.org/162/Parks-Recreation,Yes,NA,Yes,Yes,NA,Yes,NA,NA,NA,NA,35.4325415549355,-80.8435746029081,,basketball
258,266,282,Rama Road Park,"1035 RAMA RD CHARLOTTE, NC 28211",Neighborhood,No,https://www.mecknc.gov/parkandrec/pages/home.aspx?redirect=charmeck,Yes,NA,Yes,NA,NA,NA,NA,NA,Yes,NA,35.1685998751027,-80.7717290432507,,basketball
259,267,283,Reid Park,"3207 AMAY JAMES AV CHARLOTTE, NC 28208",Neighborhood,No,https://www.mecknc.gov/parkandrec/pages/home.aspx?redirect=charmeck,NA,NA,Yes,NA,NA,NA,NA,NA,NA,NA,35.2040732635299,-80.9003278717194,,basketball
262,270,286,Park Road Park,"6220 PARK RD CHARLOTTE, NC 28210",Community,Yes,https://www.mecknc.gov/parkandrec/pages/home.aspx?redirect=charmeck,Yes,NA,Yes,NA,Yes,Yes,NA,NA,Yes,NA,35.1468922730006,-80.8499198315654,,basketball
264,272,288,Revolution Park Sports Academy,"1225 REMOUNT RD CHARLOTTE, NC 28208",Recreation Center,Yes,https://www.mecknc.gov/parkandrec/pages/home.aspx?redirect=charmeck,NA,NA,Yes,NA,NA,NA,NA,NA,NA,NA,35.2136373100646,-80.8771107659024,,basketball
266,274,290,Huntersville Athletic Recreation Center,"11836 VERHOEFF DR HUNTERSVILLE, NC 28078",Recreation Center,Yes,https://www.huntersville.org/162/Parks-Recreation,NA,NA,Yes,NA,NA,NA,NA,NA,NA,NA,35.3914993978844,-80.847069597546,,basketball
268,281,298,JV Washam Recreation Center,"9611 WESTMORELAND RD CORNELIUS, NC 28031",Recreation Center,Yes,https://www.cornelius.org/103/Parks-Arts-Recreation-Culture,NA,NA,Yes,NA,Yes,NA,NA,NA,NA,NA,35.4641941139515,-80.8679597036809,,basketball
269,282,299,Evergreen Nature Preserve,"1336 NORLAND RD CHARLOTTE, NC 28205",Nature Preserve,Yes,https://www.mecknc.gov/parkandrec/pages/home.aspx?redirect=charmeck,NA,NA,Yes,NA,NA,NA,NA,NA,NA,NA,35.2077991647619,-80.7788124154591,,basketball
272,285,304,Sheffield Park,"1311 TARRINGTON AV CHARLOTTE, NC 28205",Neighborhood,No,https://www.mecknc.gov/parkandrec/pages/home.aspx?redirect=charmeck,Yes,NA,Yes,Yes,NA,NA,NA,NA,Yes,NA,35.2045280187418,-80.7693824042525,,basketball
274,287,306,Grier Heights Park,"3120 LEROY ST CHARLOTTE, NC 28205",Neighborhood,No,https://www.mecknc.gov/parkandrec/pages/home.aspx?redirect=charmeck,Yes,NA,Yes,NA,NA,Yes,NA,NA,NA,NA,35.1963101219957,-80.8080229728864,,basketball
278,291,310,Bailey Road Park,"11536 BAILEY RD CORNELIUS, NC 28031",Town Park,Yes,https://www.cornelius.org/103/Parks-Arts-Recreation-Culture,Yes,NA,Yes,Yes,NA,Yes,Yes,NA,Yes,NA,35.4669995615807,-80.8418488276582,,basketball
284,297,316,Bailey Road Recreation Center,"11900 BAILEY RD CORNELIUS, NC 28031",Recreation Center,Yes,https://www.cornelius.org/103/Parks-Arts-Recreation-Culture,NA,NA,Yes,NA,Yes,NA,NA,NA,NA,NA,35.4678928136024,-80.839312466423,,basketball
290,303,323,Enderly Park,"1501 ENDERLY RD CHARLOTTE, NC 28208",Neighborhood,No,https://www.mecknc.gov/parkandrec/pages/home.aspx?redirect=charmeck,Yes,NA,Yes,NA,NA,NA,NA,Yes,NA,NA,35.2402955980733,-80.8842646877749,,basketball
294,307,327,Martin Luther King Jr. Park,"2600 RAVENCROFT DR CHARLOTTE, NC 28208",Community,Yes,https://www.mecknc.gov/parkandrec/pages/home.aspx?redirect=charmeck,Yes,NA,Yes,NA,NA,NA,NA,NA,NA,NA,35.2446861501259,-80.8717666601855,,basketball
297,310,331,Charles Avenue Park,"800 CHARLES AV CHARLOTTE, NC 28205",Neighborhood,No,https://www.mecknc.gov/parkandrec/pages/home.aspx?redirect=charmeck,NA,NA,Yes,NA,NA,NA,NA,NA,Yes,NA,35.2428623917951,-80.8079877053462,,basketball
300,313,334,Clarks Creek Park,"5435 HUCKS RD CHARLOTTE, NC 28269",Community,Yes,https://www.mecknc.gov/parkandrec/pages/home.aspx?redirect=charmeck,Yes,NA,Yes,NA,NA,NA,NA,Yes,NA,Yes,35.3511392164429,-80.8104171717181,,basketball
307,320,341,Freedom Park,"2435 CUMBERLAND AV CHARLOTTE, NC 28203",Regional,Yes,https://www.mecknc.gov/parkandrec/pages/home.aspx?redirect=charmeck,Yes,NA,Yes,Yes,Yes,Yes,NA,NA,Yes,NA,35.1930682697266,-80.8448018160398,,basketball
310,323,344,David B. Waymer Park,"14200 HOLBROOKS RD HUNTERSVILLE, NC 28078",Town Park,Yes,https://www.huntersville.org/162/Parks-Recreation,Yes,NA,Yes,Yes,NA,Yes,NA,NA,NA,NA,35.3992988012942,-80.8342523968563,,basketball
311,324,345,Davis Flohr Park,"3020 CLEMSON AV CHARLOTTE, NC 28205",Neighborhood,No,https://www.mecknc.gov/parkandrec/pages/home.aspx?redirect=charmeck,Yes,NA,Yes,NA,NA,NA,NA,NA,NA,NA,35.2410217243032,-80.803120084069,,basketball
313,326,348,Mayerling Drive Park,"8320 MAYERLING DR CHARLOTTE, NC 28227",Neighborhood,No,https://www.mecknc.gov/parkandrec/pages/home.aspx?redirect=charmeck,Yes,NA,Yes,NA,NA,NA,NA,NA,Yes,NA,35.1875525988917,-80.7029190942186,,basketball
324,337,361,Ada Jenkins Athletic Field,"212 GAMBLE ST DAVIDSON, NC 28036",Town Park,No,https://www.ci.davidson.nc.us/130/Parks-Recreation,Yes,NA,Yes,NA,NA,NA,NA,NA,NA,NA,35.4991522485897,-80.8532578681755,,basketball
326,339,364,Archdale Park,"1020 ARCHDALE DR CHARLOTTE, NC 28217",Neighborhood,No,https://www.mecknc.gov/parkandrec/pages/home.aspx?redirect=charmeck,Yes,NA,Yes,NA,NA,NA,NA,NA,NA,NA,35.1531562378594,-80.8843774366692,,basketball
327,340,365,Fred Alexander Park,"1832 GRIERS GROVE RD CHARLOTTE, NC 28216",Neighborhood,No,https://www.mecknc.gov/parkandrec/pages/home.aspx?redirect=charmeck,Yes,NA,Yes,NA,NA,NA,NA,NA,NA,NA,35.2829495430465,-80.8606434135334,,basketball
328,341,366,Abbott Park,"1300 SPRUCE ST CHARLOTTE, NC 28203",Neighborhood,No,https://www.mecknc.gov/parkandrec/pages/home.aspx?redirect=charmeck,Yes,NA,Yes,Yes,NA,NA,NA,NA,NA,NA,35.2156366793049,-80.8712061787355,,basketball
330,343,368,Cordelia Park,"600 E 24TH ST CHARLOTTE, NC 28205",Community,No,https://www.mecknc.gov/parkandrec/pages/home.aspx?redirect=charmeck,Yes,NA,Yes,NA,NA,NA,NA,NA,NA,Yes,35.2384581313964,-80.8165170502589,,basketball
331,344,369,Fred Alexander Park,"1903 MCALLISTER DR CHARLOTTE, NC 28216",Neighborhood,No,https://www.mecknc.gov/parkandrec/pages/home.aspx?redirect=charmeck,Yes,NA,Yes,NA,NA,NA,NA,NA,NA,NA,35.2810584414411,-80.859231117919,,basketball
332,345,371,Northern Regional Recreation Center,"18121 OLD STATESVILLE RD CORNELIUS, NC 28031",Recreation Center,Yes,https://www.mecknc.gov/parkandrec/pages/home.aspx?redirect=charmeck,Yes,NA,Yes,NA,Yes,NA,NA,NA,NA,NA,35.4593164363762,-80.8436502729271,,basketball
336,349,375,Sugaw Creek Park,"943 W SUGAR CREEK RD CHARLOTTE, NC 28213",Community,Yes,https://www.mecknc.gov/parkandrec/pages/home.aspx?redirect=charmeck,Yes,NA,Yes,Yes,Yes,Yes,Yes,NA,NA,NA,35.273065578968,-80.7937216093388,,basketball
343,356,382,Vietm Veterans Park - Cabarrus County,"760 Orphange Rd , Concord NC",County Park,Yes,https://www.cabarruscounty.us/location/vietm-veterans-park,Yes,NA,Yes,NA,NA,NA,Yes,NA,Yes,NA,35.4458697377914,-80.6339176667561,,basketball
345,358,384,Bakers Creek Park/Greenway - City of Kanpolis,"1275 West A St Kannapolis, NC",Municipal Park,Yes,http://www.kanpolisnc.gov/GovernmentDepartments/ParksRecreation/Parks/tabid/131/Default.aspx,Yes,NA,Yes,NA,NA,Yes,Yes,NA,Yes,NA,35.5128579119937,-80.6322757489019,,basketball
355,368,397,Marvin Caldwell Park - City of Concord,"362 Georgia St SW Concord, NC",Municipal Park,Yes,http://www.concordnc.gov/Departments/Parks-Recreation/Facilities,Yes,Yes,Yes,Yes,NA,Yes,NA,NA,Yes,NA,35.3926267499257,-80.5827932198796,,basketball
358,371,400,McAllister Park,"8595 Park Dr Mt. Pleasant, NC",Park,Yes,NA,Yes,NA,Yes,NA,NA,NA,NA,NA,NA,NA,35.4005745109789,-80.4337308345095,,basketball
364,377,408,Vietm Veterans Park - Cabarrus County,"760 Orphange Rd , Concord NC",County Park,Yes,https://www.cabarruscounty.us/location/vietm-veterans-park,Yes,NA,Yes,NA,NA,NA,Yes,NA,Yes,NA,35.4458697377914,-80.6339176667561,,basketball
366,379,410,Bakers Creek Park/Greenway - City of Kanpolis,"1275 West A St Kannapolis, NC",Municipal Park,Yes,http://www.kanpolisnc.gov/GovernmentDepartments/ParksRecreation/Parks/tabid/131/Default.aspx,Yes,NA,Yes,NA,NA,Yes,Yes,NA,Yes,NA,35.5128579119937,-80.6322757489019,,basketball
376,389,423,Marvin Caldwell Park - City of Concord,"362 Georgia St SW Concord, NC",Municipal Park,Yes,http://www.concordnc.gov/Departments/Parks-Recreation/Facilities,Yes,Yes,Yes,Yes,NA,Yes,NA,NA,Yes,NA,35.3926267499257,-80.5827932198796,,basketball
379,392,426,McAllister Park,"8595 Park Dr Mt. Pleasant, NC",Park,Yes,NA,Yes,NA,Yes,NA,NA,NA,NA,NA,NA,NA,35.4005745109789,-80.4337308345095,,basketball
385,398,434,Vietm Veterans Park - Cabarrus County,"760 Orphange Rd , Concord NC",County Park,Yes,https://www.cabarruscounty.us/location/vietm-veterans-park,Yes,NA,Yes,NA,NA,NA,Yes,NA,Yes,NA,35.4458697377914,-80.6339176667561,,basketball
389,402,438,Birchwood Park,"3105 Hursey St, Durham NC",Park,No,https://www.dprplaymore.org/Facilities/Facility/Details/Birchwood-Park-5,NA,NA,Yes,NA,NA,NA,NA,NA,NA,NA,35.9800144633533,-78.8442713846885,,basketball
391,404,440,Burton Park,"1501 Sima Ave, Durham NC",Park,No,https://www.dprplaymore.org/Facilities/Facility/Details/Burton-Park-7,Yes,NA,Yes,NA,NA,NA,NA,NA,Yes,NA,35.9760885136977,-78.8891408306081,,basketball
392,405,441,C. R. Wood Park,"417 Commonwealth St, Durham  NC",Park,Yes,https://www.dprplaymore.org/Facilities/Facility/Details/CR-Wood-Park-9,Yes,NA,Yes,NA,NA,NA,NA,NA,Yes,NA,35.973042472571,-78.8626439132248,,basketball
396,409,445,Cook Road Park,"602 Cook Rd, Durham NC",Park,No,https://www.dprplaymore.org/Facilities/Facility/Details/Cook-Road-Park-12,Yes,NA,Yes,Yes,NA,NA,NA,NA,Yes,NA,35.9512139282367,-78.9132257841528,,basketball
398,411,447,East End Park,"1200 N Alston Ave, Durham NC",Park,Yes,https://www.dprplaymore.org/Facilities/Facility/Details/East-End-Park-20,Yes,NA,Yes,Yes,NA,Yes,NA,NA,Yes,Yes,35.9982748940269,-78.8858012687622,,basketball
399,412,448,Elmira Avenue Park,"540 Elmira Ave, Durham NC",Park,Yes,https://www.dprplaymore.org/Facilities/Facility/Details/Elmira-Avenue-Park-23,Yes,NA,Yes,Yes,NA,NA,NA,NA,Yes,NA,35.9653320360066,-78.9047695382117,,basketball
402,415,451,Hillside Park,"1301 S Roxboro St, Durham NC",Park,Yes,https://www.dprplaymore.org/Facilities/Facility/Details/Hillside-Park-32,Yes,NA,Yes,Yes,NA,Yes,NA,NA,Yes,Yes,35.98100429933,-78.9044320073297,,basketball
404,418,454,Lakeview Park,"3500 Dearborn Dr, Durham NC",Park,Yes,https://www.dprplaymore.org/Facilities/Facility/Details/Lakeview-Park-39,Yes,NA,Yes,NA,NA,NA,NA,NA,Yes,NA,36.0383321649609,-78.8775479331159,,basketball
406,420,456,Long Meadow Park,"917 Liberty St,Durham  NC",Park,Yes,https://www.dprplaymore.org/Facilities/Facility/Details/Long-Meadow-Park-42,Yes,NA,Yes,NA,NA,NA,NA,NA,Yes,NA,35.9927826877588,-78.8856442539603,,basketball
407,421,457,Lyon Park,"1200 W Lakewood Ave,Durham  NC",Park,Yes,https://www.dprplaymore.org/Facilities/Facility/Details/Lyon-Park-44,Yes,NA,Yes,NA,NA,NA,NA,NA,Yes,NA,35.9864165223254,-78.9185779479884,,basketball
408,422,458,Morreene Road Park,"1102 Morreene Rd, Durham NC",Park,Yes,https://www.dprplaymore.org/Facilities/Facility/Details/Morreene-Road-Park-46,Yes,NA,Yes,Yes,NA,NA,NA,NA,Yes,NA,36.0073861215869,-78.9548054059466,,basketball
411,425,461,Old Chapel Hill Road Park,"3751 SW Durham Dr,Durham  NC",Park,Yes,https://www.dprplaymore.org/Facilities/Facility/Details/Old-Chapel-Hill-Road-Park-50,Yes,Yes,Yes,NA,NA,NA,NA,NA,NA,NA,35.948262356054,-78.9832626818325,,basketball
414,428,464,Oval Drive Park,"2200 W Club Blvd, Durham NC",Park,No,https://www.dprplaymore.org/Facilities/Facility/Details/Oval-Drive-Park-54,Yes,NA,Yes,Yes,NA,NA,NA,NA,Yes,NA,36.0175938926239,-78.9284401024743,,basketball
415,429,465,Red Maple Park,"3320 Hinson Dr, Durham NC",Park,No,https://www.dprplaymore.org/Facilities/Facility/Details/Red-Maple-Park-58,Yes,NA,Yes,NA,NA,NA,NA,NA,Yes,NA,36.033178670679,-78.877973127989,,basketball
416,430,466,Rockwood Park,"2310 Whitley Dr, Durham NC",Park,Yes,https://www.dprplaymore.org/Facilities/Facility/Details/Rockwood-Park-61,Yes,NA,Yes,NA,NA,NA,NA,NA,Yes,NA,35.9739103092861,-78.9208697351535,,basketball
419,433,470,Sherwood Park,"1720 Cheek Rd, Durham NC",Park,Yes,https://www.dprplaymore.org/Facilities/Facility/Details/Sherwood-Park-65,Yes,NA,Yes,NA,NA,Yes,NA,NA,NA,NA,36.0039847457073,-78.8726497658791,,basketball
420,434,471,Solite Park,"4704 Fayetteville Rd, Durham NC",Park,Yes,https://www.dprplaymore.org/Facilities/Facility/Details/Solite-Park-67,Yes,NA,Yes,NA,NA,NA,NA,NA,Yes,NA,35.936946761127,-78.9080572433377,,basketball
422,436,473,Unity Village Park,"2011 Matilene St, Durham NC",Park,Yes,https://www.dprplaymore.org/Facilities/Facility/Details/Unity-Village-Park-72,Yes,NA,Yes,NA,NA,NA,NA,NA,Yes,NA,35.96473721387,-78.8866552110159,,basketball
432,446,483,Twin Lakes Park,"439 Chandler Rd, Durham NC",Park,Yes,https://www.dprplaymore.org/Facilities/Facility/Details/Twin-Lakes-Park-71,Yes,Yes,Yes,NA,NA,NA,NA,NA,Yes,NA,35.9932140349189,-78.8376809828865,,basketball
439,453,492,Southern Boundaries Park,"3400 Third Fork Dr, Durham NC",Park,Yes,https://www.dprplaymore.org/Facilities/Facility/Details/Southern-Boundaries-Park-68,NA,NA,Yes,Yes,NA,NA,NA,NA,NA,NA,35.9579967751931,-78.929056637388,,basketball
440,454,493,Walltown Park,"1308 W Club Blvd, Durham NC",Park,No,https://www.dprplaymore.org/Facilities/Facility/Details/Walltown-Park-74,Yes,NA,Yes,NA,NA,NA,NA,NA,Yes,NA,36.016980253087,-78.9132408189868,,basketball
441,455,495,Old Farm Road Park,"7 Hedgerow Pl, Durham NC",Park,Yes,https://www.dprplaymore.org/Facilities/Facility/Details/Old-Farm-Road-Park-51,Yes,NA,Yes,NA,NA,NA,NA,NA,Yes,NA,36.0741433689686,-78.8973388980542,,basketball
445,459,505,Bethesda Park,"1816 Stage Rd, Durham NC",Park,Yes,https://www.dprplaymore.org/Facilities/Facility/Details/Bethesda-Park-4,Yes,NA,Yes,Yes,NA,NA,Yes,NA,Yes,NA,35.9455280416635,-78.8451170922938,,basketball
446,460,506,Cornwallis Road Park,"2830 Wade Rd, Durham NC",Park,Yes,https://www.dprplaymore.org/Facilities/Facility/Details/Cornwallis-Road-Park-13,Yes,NA,Yes,NA,NA,NA,Yes,NA,Yes,NA,35.9780551435912,-78.951588065324,,basketball
447,461,507,Crest Street Park,"2503 Crest St, Durham NC",Park,Yes,https://www.dprplaymore.org/Facilities/Facility/Details/Crest-Street-Park-14,Yes,NA,Yes,NA,NA,Yes,NA,NA,Yes,NA,36.0129765864658,-78.9383786111222,,basketball
663,693,3,Five Points Park,"200 FRENCH ST CHARLOTTE, NC 28216",Neighborhood,No,https://www.mecknc.gov/parkandrec/pages/home.aspx?redirect=charmeck,Yes,NA,Yes,Yes,NA,NA,NA,NA,Yes,NA,35.248809,-80.8596975,,basketball
671,701,303,Eastway Regional Recreation Center,"3150 EASTWAY PARK DR CHARLOTTE, NC 28213",Recreation Center,Yes,https://www.mecknc.gov/parkandrec/pages/home.aspx?redirect=charmeck,NA,NA,Yes,NA,Yes,NA,NA,NA,NA,NA,35.2542770033001,-80.7779212569459,,basketball
677,707,370,Abernathy Park,"205 GLENDALE DR HUNTERSVILLE, NC 28078",Town Park,Yes,https://www.huntersville.org/162/Parks-Recreation,Yes,NA,Yes,NA,NA,Yes,NA,NA,NA,NA,35.4184649501273,-80.837768496686,,basketball
678,708,385,Hartsell Park and Rec Center - City of Concord,"60 Hartsell School Rd Concord, NC",Municipal Park,Yes,http://www.concordnc.gov/Departments/Parks-Recreation/Facilities,Yes,NA,Yes,NA,NA,Yes,NA,NA,Yes,NA,35.3914458930281,-80.5919547036826,,basketball
679,709,396,Les Myers Park - City of Concord,"338 Lawndale Ave SE Concord, NC",Municipal Park,Yes,http://www.concordnc.gov/Departments/Parks-Recreation/Facilities,Yes,NA,Yes,Yes,NA,Yes,NA,NA,Yes,NA,35.394983238216,-80.5632361436357,,basketball
681,711,411,Hartsell Park and Rec Center - City of Concord,"60 Hartsell School Rd Concord, NC",Municipal Park,Yes,http://www.concordnc.gov/Departments/Parks-Recreation/Facilities,Yes,NA,Yes,NA,NA,Yes,NA,NA,Yes,NA,35.3914458930281,-80.5919547036826,,basketball
682,712,422,Les Myers Park - City of Concord,"338 Lawndale Ave SE Concord, NC",Municipal Park,Yes,http://www.concordnc.gov/Departments/Parks-Recreation/Facilities,Yes,NA,Yes,Yes,NA,Yes,NA,NA,Yes,NA,35.394983238216,-80.5632361436357,,basketball
685,715,490,River Forest Park,"1000 Windermere Dr,Durham  NC",Park,No,https://www.dprplaymore.org/Facilities/Facility/Details/River-Forest-Park-59,NA,Yes,Yes,NA,NA,NA,NA,NA,Yes,NA,36.0783013902951,-78.9034326501443,,basketball
746,3,72,James Hoyt Wilhelm Park,"19018 SMITH CR CORNELIUS, NC 28031",Town Park,Yes,https://www.cornelius.org/103/Parks-Arts-Recreation-Culture,NA,NA,Yes,NA,NA,Yes,NA,NA,NA,NA,35.480885,-80.864699,,basketball
747,4,120,Plum Creek Park,"18928 BARTLETTE CREEK DR DAVIDSON, NC 28036",Town Park,No,https://www.ci.davidson.nc.us/130/Parks-Recreation,Yes,NA,Yes,Yes,NA,NA,NA,NA,NA,NA,35.474032,-80.823527,,basketball
751,8,203,Second Ward Gymnasium,"710 E MARTIN LUTHER KING JR BV CHARLOTTE, NC 28202",Recreation Center,Yes,https://www.mecknc.gov/parkandrec/pages/home.aspx?redirect=charmeck,NA,NA,Yes,NA,NA,NA,NA,NA,NA,NA,35.218073,-80.840814,,basketball
36,36,42,Reedy Creek Park,"2900 ROCKY RIVER RD CHARLOTTE, NC 28215",Regional,Yes,https://www.mecknc.gov/parkandrec/pages/home.aspx?redirect=charmeck,Yes,NA,Yes,NA,Yes,Yes,Yes,Yes,NA,NA,35.2759946810159,-80.7180725530453,,discgolf
75,77,84,Renaissance Park,"1536 W TYVOLA RD CHARLOTTE, NC 28217",Regional,Yes,https://www.mecknc.gov/parkandrec/pages/home.aspx?redirect=charmeck,NA,NA,NA,NA,Yes,Yes,Yes,Yes,NA,NA,35.175099855529,-80.9096777631741,,discgolf
91,94,101,T.M. Winget Park,"12025 WINGET RD CHARLOTTE, NC 28278",Regional,Yes,https://www.mecknc.gov/parkandrec/pages/home.aspx?redirect=charmeck,Yes,NA,Yes,NA,Yes,Yes,Yes,NA,Yes,NA,35.1301110200499,-81.0015366648542,,discgolf
132,137,147,Kilborne Park,"2600 KILBORNE DR CHARLOTTE, NC 28205",Community,Yes,https://www.mecknc.gov/parkandrec/pages/home.aspx?redirect=charmeck,Yes,NA,NA,Yes,NA,Yes,Yes,NA,NA,NA,35.221856516987,-80.7713235670081,,discgolf
187,195,210,Squirrel Lake Park,"1631 PLEASANT PLAINS RD MATTHEWS, NC 28105",Town Park,Yes,https://www.matthewsnc.gov/pview.aspx?id=20727&catid=0,Yes,NA,NA,NA,NA,NA,Yes,NA,Yes,NA,35.0980551890768,-80.7248290051824,,discgolf
218,226,242,R.C. Bradford Park,"17005 DAVIDSON-CONCORD RD HUNTERSVILLE, NC 28078",Town Park,Yes,https://www.huntersville.org/162/Parks-Recreation,Yes,NA,NA,NA,NA,Yes,Yes,NA,NA,NA,35.447380274337,-80.7879441973828,,discgolf
234,242,258,Hornets Nest Park,"6301 BEATTIES FORD RD CHARLOTTE, NC 28216",Regional,Yes,https://www.mecknc.gov/parkandrec/pages/home.aspx?redirect=charmeck,Yes,NA,Yes,Yes,Yes,Yes,Yes,NA,NA,NA,35.3200202859571,-80.8651414799234,,discgolf
242,250,266,Idlewild Road Park,"10512 IDLEWILD RD MINT HILL, NC 28105",Regional,Yes,https://www.mecknc.gov/parkandrec/pages/home.aspx?redirect=charmeck,Yes,NA,NA,NA,NA,Yes,Yes,NA,Yes,NA,35.1639152413883,-80.6998318797694,,discgolf
248,256,272,Robert L. Smith Park,"1604 LITTLE ROCK RD CHARLOTTE, NC 28214",Regional,Yes,https://www.mecknc.gov/parkandrec/pages/home.aspx?redirect=charmeck,Yes,NA,NA,NA,NA,NA,Yes,NA,NA,NA,35.2565676229106,-80.9405158048924,,discgolf
275,288,307,Elon Park,"11435 ARDREY KELL RD CHARLOTTE, NC 28277",Regional,Yes,https://www.mecknc.gov/parkandrec/pages/home.aspx?redirect=charmeck,NA,NA,NA,NA,NA,Yes,Yes,NA,Yes,NA,35.0223940308663,-80.8456161124603,,discgolf
278,291,310,Bailey Road Park,"11536 BAILEY RD CORNELIUS, NC 28031",Town Park,Yes,https://www.cornelius.org/103/Parks-Arts-Recreation-Culture,Yes,NA,Yes,Yes,NA,Yes,Yes,NA,Yes,NA,35.4669995615807,-80.8418488276582,,discgolf
282,295,314,Robbins Park,"17738 WEST CATAWBA AV CORNELIUS, NC 28031",Town Park,Yes,https://www.cornelius.org/103/Parks-Arts-Recreation-Culture,Yes,NA,NA,Yes,Yes,NA,Yes,NA,Yes,NA,35.4560353578873,-80.8884532043639,,discgolf
295,308,328,Mint Hill Veterans Memorial Park,"8850 FAIRVIEW RD MINT HILL, NC 28227",Town Park,Yes,https://minthill.com/parks_recreation.php?Parks-Recreation-1,Yes,NA,NA,Yes,Yes,Yes,Yes,NA,NA,NA,35.1800049074388,-80.6344889578645,,discgolf
302,315,336,Nevin Park,"6100 STATESVILLE RD CHARLOTTE, NC 28269",Regional,Yes,https://www.mecknc.gov/parkandrec/pages/home.aspx?redirect=charmeck,Yes,NA,NA,NA,NA,Yes,Yes,NA,Yes,Yes,35.3033436903112,-80.8398307320042,,discgolf
336,349,375,Sugaw Creek Park,"943 W SUGAR CREEK RD CHARLOTTE, NC 28213",Community,Yes,https://www.mecknc.gov/parkandrec/pages/home.aspx?redirect=charmeck,Yes,NA,Yes,Yes,Yes,Yes,Yes,NA,NA,NA,35.273065578968,-80.7937216093388,,discgolf
339,352,378,Frank Liske Park - Cabarrus County,"4001 Stough Rd Concord, NC",County Park,Yes,https://www.cabarruscounty.us/location/frank-liske-park,Yes,Yes,NA,NA,NA,Yes,Yes,NA,Yes,NA,35.360051719753,-80.6272013352079,,discgolf
343,356,382,Vietm Veterans Park - Cabarrus County,"760 Orphange Rd , Concord NC",County Park,Yes,https://www.cabarruscounty.us/location/vietm-veterans-park,Yes,NA,Yes,NA,NA,NA,Yes,NA,Yes,NA,35.4458697377914,-80.6339176667561,,discgolf
345,358,384,Bakers Creek Park/Greenway - City of Kanpolis,"1275 West A St Kannapolis, NC",Municipal Park,Yes,http://www.kanpolisnc.gov/GovernmentDepartments/ParksRecreation/Parks/tabid/131/Default.aspx,Yes,NA,Yes,NA,NA,Yes,Yes,NA,Yes,NA,35.5128579119937,-80.6322757489019,,discgolf
357,370,399,James L. Dorton Park - City of Concord,"5700 Poplar Tent Rd Concord, NC",Municipal Park,No,http://www.concordnc.gov/Departments/Parks-Recreation/Facilities,NA,Yes,NA,Yes,NA,NA,Yes,NA,NA,NA,35.4110769825969,-80.6694463351402,,discgolf
360,373,404,Frank Liske Park - Cabarrus County,"4001 Stough Rd Concord, NC",County Park,Yes,https://www.cabarruscounty.us/location/frank-liske-park,Yes,Yes,NA,NA,NA,Yes,Yes,NA,Yes,NA,35.360051719753,-80.6272013352079,,discgolf
364,377,408,Vietm Veterans Park - Cabarrus County,"760 Orphange Rd , Concord NC",County Park,Yes,https://www.cabarruscounty.us/location/vietm-veterans-park,Yes,NA,Yes,NA,NA,NA,Yes,NA,Yes,NA,35.4458697377914,-80.6339176667561,,discgolf
366,379,410,Bakers Creek Park/Greenway - City of Kanpolis,"1275 West A St Kannapolis, NC",Municipal Park,Yes,http://www.kanpolisnc.gov/GovernmentDepartments/ParksRecreation/Parks/tabid/131/Default.aspx,Yes,NA,Yes,NA,NA,Yes,Yes,NA,Yes,NA,35.5128579119937,-80.6322757489019,,discgolf
378,391,425,James L. Dorton Park - City of Concord,"5700 Poplar Tent Rd Concord, NC",Municipal Park,No,http://www.concordnc.gov/Departments/Parks-Recreation/Facilities,NA,Yes,NA,Yes,NA,NA,Yes,NA,NA,NA,35.4110769825969,-80.6694463351402,,discgolf
381,394,430,Frank Liske Park - Cabarrus County,"4001 Stough Rd Concord, NC",County Park,Yes,https://www.cabarruscounty.us/location/frank-liske-park,Yes,Yes,NA,NA,NA,Yes,Yes,NA,Yes,NA,35.360051719753,-80.6272013352079,,discgolf
385,398,434,Vietm Veterans Park - Cabarrus County,"760 Orphange Rd , Concord NC",County Park,Yes,https://www.cabarruscounty.us/location/vietm-veterans-park,Yes,NA,Yes,NA,NA,NA,Yes,NA,Yes,NA,35.4458697377914,-80.6339176667561,,discgolf
405,419,455,Leigh Farm Park,"370 Leigh Farm Rd,Durham  NC",Park,Yes,https://www.dprplaymore.org/Facilities/Facility/Details/Leigh-Farm-Park-40,NA,NA,NA,NA,NA,NA,Yes,NA,Yes,NA,35.9148886460768,-78.9798666859045,,discgolf
423,437,474,Valley Springs Park,"3805 Valley Springs Rd, Durham NC",Park,Yes,https://www.dprplaymore.org/Facilities/Facility/Details/Valley-Springs-Park-73,Yes,Yes,NA,NA,NA,Yes,Yes,NA,Yes,NA,36.0531469842974,-78.9577712750651,,discgolf
445,459,505,Bethesda Park,"1816 Stage Rd, Durham NC",Park,Yes,https://www.dprplaymore.org/Facilities/Facility/Details/Bethesda-Park-4,Yes,NA,Yes,Yes,NA,NA,Yes,NA,Yes,NA,35.9455280416635,-78.8451170922938,,discgolf
446,460,506,Cornwallis Road Park,"2830 Wade Rd, Durham NC",Park,Yes,https://www.dprplaymore.org/Facilities/Facility/Details/Cornwallis-Road-Park-13,Yes,NA,Yes,NA,NA,NA,Yes,NA,Yes,NA,35.9780551435912,-78.951588065324,,discgolf
458,472,525,Apex ture Park,"2600 Evans Rd., Apex NC",NA,Yes,https://www.apexnc.org/800/ture-Park-Seymour-Athletic-Fields,NA,NA,NA,NA,NA,NA,Yes,Yes,Yes,NA,35.7132427063385,-78.9057433252262,,discgolf
480,497,556,Cedar Hills Park,"5600 Sweetbriar Dr, Raleigh, NC",NA,No,https://raleighnc.gov/places/cedar-hills-park,Yes,NA,NA,Yes,NA,Yes,Yes,NA,Yes,NA,35.8573587862509,-78.6290711685111,,discgolf
549,573,650,Kentwood Park,"4531 Kaplan Dr, Raleigh, NC",NA,Yes,https://raleighnc.gov/places/kentwood-park,Yes,NA,NA,Yes,NA,Yes,Yes,NA,Yes,NA,35.7768682013035,-78.6961841693236,,discgolf
652,681,783,Wendell Park,"601 W. Third Street, Wendell, NC",NA,Yes,http://www.towfwendell.com/departments/parks-and-recreation,Yes,NA,NA,Yes,NA,Yes,Yes,Yes,Yes,NA,35.7805463738642,-78.3610290224412,,discgolf
721,30,620,Harris Lake County Park,"2112 County Park Dr., New Hill, NC  27562",NA,Yes,https://www.wakegov.com/departments-government/parks-recreation-and-open-space/all-parks-trails/harris-lake-county-park,Yes,NA,NA,NA,NA,NA,Yes,NA,Yes,NA,35.631378,-78.921194,,discgolf
339,352,378,Frank Liske Park - Cabarrus County,"4001 Stough Rd Concord, NC",County Park,Yes,https://www.cabarruscounty.us/location/frank-liske-park,Yes,Yes,NA,NA,NA,Yes,Yes,NA,Yes,NA,35.360051719753,-80.6272013352079,,soccer
353,366,394,Walter Safrit Park - City of Kanpolis,"1415 Bethpage Rd Kannapolis, NC",Municipal Park,Yes,http://www.kanpolisnc.gov/GovernmentDepartments/ParksRecreation/Parks/tabid/131/Default.aspx,Yes,Yes,NA,NA,NA,Yes,NA,NA,Yes,NA,35.4852977608515,-80.6494534960678,,soccer
355,368,397,Marvin Caldwell Park - City of Concord,"362 Georgia St SW Concord, NC",Municipal Park,Yes,http://www.concordnc.gov/Departments/Parks-Recreation/Facilities,Yes,Yes,Yes,Yes,NA,Yes,NA,NA,Yes,NA,35.3926267499257,-80.5827932198796,,soccer
357,370,399,James L. Dorton Park - City of Concord,"5700 Poplar Tent Rd Concord, NC",Municipal Park,No,http://www.concordnc.gov/Departments/Parks-Recreation/Facilities,NA,Yes,NA,Yes,NA,NA,Yes,NA,NA,NA,35.4110769825969,-80.6694463351402,,soccer
360,373,404,Frank Liske Park - Cabarrus County,"4001 Stough Rd Concord, NC",County Park,Yes,https://www.cabarruscounty.us/location/frank-liske-park,Yes,Yes,NA,NA,NA,Yes,Yes,NA,Yes,NA,35.360051719753,-80.6272013352079,,soccer
374,387,420,Walter Safrit Park - City of Kanpolis,"1415 Bethpage Rd Kannapolis, NC",Municipal Park,Yes,http://www.kanpolisnc.gov/GovernmentDepartments/ParksRecreation/Parks/tabid/131/Default.aspx,Yes,Yes,NA,NA,NA,Yes,NA,NA,Yes,NA,35.4852977608515,-80.6494534960678,,soccer
376,389,423,Marvin Caldwell Park - City of Concord,"362 Georgia St SW Concord, NC",Municipal Park,Yes,http://www.concordnc.gov/Departments/Parks-Recreation/Facilities,Yes,Yes,Yes,Yes,NA,Yes,NA,NA,Yes,NA,35.3926267499257,-80.5827932198796,,soccer
378,391,425,James L. Dorton Park - City of Concord,"5700 Poplar Tent Rd Concord, NC",Municipal Park,No,http://www.concordnc.gov/Departments/Parks-Recreation/Facilities,NA,Yes,NA,Yes,NA,NA,Yes,NA,NA,NA,35.4110769825969,-80.6694463351402,,soccer
381,394,430,Frank Liske Park - Cabarrus County,"4001 Stough Rd Concord, NC",County Park,Yes,https://www.cabarruscounty.us/location/frank-liske-park,Yes,Yes,NA,NA,NA,Yes,Yes,NA,Yes,NA,35.360051719753,-80.6272013352079,,soccer
393,406,442,C.M. Herndon Park,"511 Scott King Rd, Durham  NC",Park,Yes,https://www.dprplaymore.org/Facilities/Facility/Details/CM-Herndon-Park-8,Yes,Yes,NA,NA,NA,NA,NA,NA,Yes,NA,35.8749337414515,-78.9358948440799,,soccer
411,425,461,Old Chapel Hill Road Park,"3751 SW Durham Dr,Durham  NC",Park,Yes,https://www.dprplaymore.org/Facilities/Facility/Details/Old-Chapel-Hill-Road-Park-50,Yes,Yes,Yes,NA,NA,NA,NA,NA,NA,NA,35.948262356054,-78.9832626818325,,soccer
423,437,474,Valley Springs Park,"3805 Valley Springs Rd, Durham NC",Park,Yes,https://www.dprplaymore.org/Facilities/Facility/Details/Valley-Springs-Park-73,Yes,Yes,NA,NA,NA,Yes,Yes,NA,Yes,NA,36.0531469842974,-78.9577712750651,,soccer
431,445,482,Piney Wood Park,"400 E Woodcroft Pkwy,Durham  NC",Park,Yes,https://www.dprplaymore.org/Facilities/Facility/Details/Piney-Wood-Park-56,Yes,Yes,NA,Yes,NA,NA,NA,Yes,Yes,NA,35.9164283173076,-78.9240992502492,,soccer
432,446,483,Twin Lakes Park,"439 Chandler Rd, Durham NC",Park,Yes,https://www.dprplaymore.org/Facilities/Facility/Details/Twin-Lakes-Park-71,Yes,Yes,Yes,NA,NA,NA,NA,NA,Yes,NA,35.9932140349189,-78.8376809828865,,soccer
443,457,502,Holton Athletic Field,"401 N Driver St, Durham NC",Park,Yes,N/A,NA,Yes,NA,NA,NA,NA,NA,NA,Yes,NA,35.9889203102219,-78.8784236969438,,soccer
685,715,490,River Forest Park,"1000 Windermere Dr,Durham  NC",Park,No,https://www.dprplaymore.org/Facilities/Facility/Details/River-Forest-Park-59,NA,Yes,Yes,NA,NA,NA,NA,NA,Yes,NA,36.0783013902951,-78.9034326501443,,soccer
724,17,509,Merrick Moore Park,"632 N Hoover Rd, Durham, NC 27703",Park,No,NA,Yes,Yes,NA,NA,NA,NA,NA,NA,NA,NA,36.002613,-78.859086,,soccer
732,16,494,Sw Hill Road Park,"619 Sw Hill Rd, Durham NC",Park,No,https://www.dprplaymore.org/Facilities/Facility/Details/Sw-Hill-Road-Park-66,NA,Yes,NA,NA,NA,Yes,NA,NA,NA,NA,36.11068,-78.89044,,soccer
5,5,8,EB Moore Park,"901 MARSH RD CHARLOTTE, NC 28209",Neighborhood,Yes,https://www.mecknc.gov/parkandrec/pages/home.aspx?redirect=charmeck,Yes,NA,NA,Yes,NA,NA,NA,NA,NA,NA,35.1876858971469,-80.8584642715048,,tennis
17,17,20,Unity Park,"6401 KELSEY DR CHARLOTTE, NC 28215",Neighborhood,No,https://www.mecknc.gov/parkandrec/pages/home.aspx?redirect=charmeck,Yes,NA,NA,Yes,NA,NA,NA,NA,NA,NA,35.2540178880798,-80.7533887327817,,tennis
41,41,47,Grayson Park,"750 BEAL ST CHARLOTTE, NC 28211",Neighborhood,No,https://www.mecknc.gov/parkandrec/pages/home.aspx?redirect=charmeck,Yes,NA,Yes,Yes,NA,Yes,NA,NA,NA,NA,35.1903948291116,-80.7965304408878,,tennis
51,51,57,Marion Diehl Park,"2219 TYVOLA RD CHARLOTTE, NC 28210",Community,Yes,https://www.mecknc.gov/parkandrec/pages/home.aspx?redirect=charmeck,NA,NA,NA,Yes,NA,NA,NA,NA,Yes,NA,35.1593380374005,-80.8588743650823,,tennis
69,69,76,Torrence Chapel Park,"21309 TORRENCE CHAPEL RD CORNELIUS, NC 28031",Town Park,Yes,https://www.cornelius.org/103/Parks-Arts-Recreation-Culture,Yes,NA,Yes,Yes,NA,Yes,NA,NA,Yes,NA,35.4918604131224,-80.8783170202821,,tennis
70,70,77,Park Road Tennis Center,"6215 PARK RD CHARLOTTE, NC 28210",Tennis Center,Yes,https://www.mecknc.gov/parkandrec/pages/home.aspx?redirect=charmeck,NA,NA,NA,Yes,NA,NA,NA,NA,Yes,NA,35.1440828052273,-80.8499492039891,,tennis
76,78,85,Jetton Park,"19000 JETTON RD CORNELIUS, NC 28078",Regional,Yes,https://www.mecknc.gov/parkandrec/pages/home.aspx?redirect=charmeck,Yes,NA,NA,Yes,NA,NA,NA,NA,Yes,NA,35.475881090844,-80.9003626206426,,tennis
83,86,93,Carmel Road Park,"2365 CARMEL RD CHARLOTTE, NC 28226",Neighborhood,Yes,https://www.mecknc.gov/parkandrec/pages/home.aspx?redirect=charmeck,Yes,NA,Yes,Yes,NA,Yes,NA,NA,NA,NA,35.13450706392,-80.8063645991298,,tennis
104,107,114,Tuckaseegee Park,"4820 TUCKASEEGEE RD CHARLOTTE, NC 28208",Neighborhood,Yes,https://www.mecknc.gov/parkandrec/pages/home.aspx?redirect=charmeck,Yes,NA,Yes,Yes,NA,Yes,NA,NA,NA,NA,35.2480697171318,-80.906785187768,,tennis
107,110,117,Frazier Park,"1201 W 4TH ST EXT CHARLOTTE, NC 28202",Neighborhood,No,https://www.mecknc.gov/parkandrec/pages/home.aspx?redirect=charmeck,Yes,NA,Yes,Yes,NA,NA,NA,Yes,NA,NA,35.2327717879066,-80.8531870802637,,tennis
124,129,139,Holbrook Park,"100 SHERWOOD DR HUNTERSVILLE, NC 28078",Town Park,Yes,https://www.huntersville.org/162/Parks-Recreation,Yes,NA,NA,Yes,NA,NA,NA,NA,NA,NA,35.4107923046965,-80.8452547601585,,tennis
132,137,147,Kilborne Park,"2600 KILBORNE DR CHARLOTTE, NC 28205",Community,Yes,https://www.mecknc.gov/parkandrec/pages/home.aspx?redirect=charmeck,Yes,NA,NA,Yes,NA,Yes,Yes,NA,NA,NA,35.221856516987,-80.7713235670081,,tennis
155,161,174,Colonial Park,"219 PROVIDENCE RD CHARLOTTE, NC 28207",Neighborhood,No,https://www.mecknc.gov/parkandrec/pages/home.aspx?redirect=charmeck,Yes,NA,Yes,Yes,NA,NA,NA,NA,NA,NA,35.2075701976983,-80.8241324420413,,tennis
161,167,181,Sedgefield Park,"600 ELMHURST RD CHARLOTTE, NC 28209",Neighborhood,No,https://www.mecknc.gov/parkandrec/pages/home.aspx?redirect=charmeck,Yes,NA,Yes,Yes,NA,NA,NA,NA,Yes,NA,35.1977573838979,-80.859663439273,,tennis
162,168,182,Shamrock Park,"2545 JEFF ST CHARLOTTE, NC 28205",Neighborhood,No,https://www.mecknc.gov/parkandrec/pages/home.aspx?redirect=charmeck,Yes,NA,NA,Yes,NA,NA,NA,NA,Yes,NA,35.2340789774851,-80.7832464776583,,tennis
168,174,188,Veterans Park,"2136 CENTRAL AV CHARLOTTE, NC 28205",Neighborhood,Yes,https://www.mecknc.gov/parkandrec/pages/home.aspx?redirect=charmeck,Yes,NA,Yes,Yes,NA,Yes,NA,NA,Yes,Yes,35.2197686596828,-80.8049350943288,,tennis
176,182,196,Huntingtowne Farms Park,"2200 RAMBLEWOOD LN CHARLOTTE, NC 28210",Community,No,https://www.mecknc.gov/parkandrec/pages/home.aspx?redirect=charmeck,Yes,NA,Yes,Yes,NA,NA,NA,NA,Yes,NA,35.1277799364726,-80.8635794508203,,tennis
182,190,205,Alexander Park,"739 E 12TH ST CHARLOTTE, NC 28206",Neighborhood,Yes,https://www.mecknc.gov/parkandrec/pages/home.aspx?redirect=charmeck,Yes,NA,Yes,Yes,NA,NA,NA,NA,NA,NA,35.227272416784,-80.8277768842611,,tennis
219,227,243,Coulwood Park,"198 COULWOOD PARK DR CHARLOTTE, NC 28214",Community,Yes,https://www.mecknc.gov/parkandrec/pages/home.aspx?redirect=charmeck,Yes,NA,NA,Yes,Yes,Yes,NA,NA,NA,NA,35.3065754828297,-80.9419421526189,,tennis
221,229,245,Colonel Francis J. Beatty Park,"4330 WEDDINGTON RD CHARLOTTE, NC 28105",Regional,Yes,https://www.mecknc.gov/parkandrec/pages/home.aspx?redirect=charmeck,Yes,NA,Yes,Yes,Yes,Yes,NA,NA,Yes,NA,35.0678580985465,-80.7287248849222,,tennis
222,230,246,Collins Park,"4525 COLLINGWOOD DR CHARLOTTE, NC 28209",Neighborhood,No,https://www.mecknc.gov/parkandrec/pages/home.aspx?redirect=charmeck,Yes,NA,NA,Yes,NA,NA,NA,NA,NA,NA,35.1816281267003,-80.8710655496549,,tennis
225,233,249,Edgehill Park,"812 S EDGEHILL RD CHARLOTTE, NC 28207",Neighborhood,No,https://www.mecknc.gov/parkandrec/pages/home.aspx?redirect=charmeck,Yes,NA,NA,Yes,NA,NA,NA,NA,NA,NA,35.202690804751,-80.829673307683,,tennis
234,242,258,Hornets Nest Park,"6301 BEATTIES FORD RD CHARLOTTE, NC 28216",Regional,Yes,https://www.mecknc.gov/parkandrec/pages/home.aspx?redirect=charmeck,Yes,NA,Yes,Yes,Yes,Yes,Yes,NA,NA,NA,35.3200202859571,-80.8651414799234,,tennis
240,248,264,Jeff Adams Tennis Center,"1520 W TYVOLA RD CHARLOTTE, NC 28217",Tennis Center,Yes,https://www.mecknc.gov/parkandrec/pages/home.aspx?redirect=charmeck,NA,NA,NA,Yes,NA,NA,NA,NA,NA,NA,35.1738512273152,-80.909019067726,,tennis
241,249,265,Independence Park,"1631 PARK DR CHARLOTTE, NC 28204",Neighborhood,No,https://www.mecknc.gov/parkandrec/pages/home.aspx?redirect=charmeck,Yes,NA,Yes,Yes,Yes,NA,NA,NA,Yes,NA,35.2156267772641,-80.8260922592987,,tennis
246,254,270,Latta Park,"601 E PARK AV CHARLOTTE, NC 28203",Community,Yes,https://www.mecknc.gov/parkandrec/pages/home.aspx?redirect=charmeck,Yes,NA,Yes,Yes,Yes,NA,NA,NA,Yes,Yes,35.2099897827597,-80.8513997029925,,tennis
247,255,271,Mallard Creek Park,"3001 JOHNSTON OEHLER RD CHARLOTTE, NC 28269",Regional,Yes,https://www.mecknc.gov/parkandrec/pages/home.aspx?redirect=charmeck,Yes,NA,NA,Yes,Yes,Yes,NA,NA,Yes,NA,35.3613345218918,-80.7594125391203,,tennis
253,261,277,Midwood Park,"2100 WILHELMINA AV CHARLOTTE, NC 28205",Neighborhood,Yes,https://www.mecknc.gov/parkandrec/pages/home.aspx?redirect=charmeck,Yes,NA,Yes,Yes,NA,Yes,NA,NA,Yes,NA,35.2297559934979,-80.8024808896841,,tennis
254,262,278,Mason Wallace Park,"7301 MONROE RD CHARLOTTE, NC 28212",Community,No,https://www.mecknc.gov/parkandrec/pages/home.aspx?redirect=charmeck,Yes,NA,Yes,Yes,NA,Yes,NA,NA,NA,NA,35.1689739107622,-80.7559792358852,,tennis
255,263,279,North Mecklenburg Park,"16131 OLD STATESVILLE RD HUNTERSVILLE, NC 28078",Town Park,Yes,https://www.huntersville.org/162/Parks-Recreation,Yes,NA,Yes,Yes,NA,Yes,NA,NA,NA,NA,35.4325415549355,-80.8435746029081,,tennis
272,285,304,Sheffield Park,"1311 TARRINGTON AV CHARLOTTE, NC 28205",Neighborhood,No,https://www.mecknc.gov/parkandrec/pages/home.aspx?redirect=charmeck,Yes,NA,Yes,Yes,NA,NA,NA,NA,Yes,NA,35.2045280187418,-80.7693824042525,,tennis
278,291,310,Bailey Road Park,"11536 BAILEY RD CORNELIUS, NC 28031",Town Park,Yes,https://www.cornelius.org/103/Parks-Arts-Recreation-Culture,Yes,NA,Yes,Yes,NA,Yes,Yes,NA,Yes,NA,35.4669995615807,-80.8418488276582,,tennis
282,295,314,Robbins Park,"17738 WEST CATAWBA AV CORNELIUS, NC 28031",Town Park,Yes,https://www.cornelius.org/103/Parks-Arts-Recreation-Culture,Yes,NA,NA,Yes,Yes,NA,Yes,NA,Yes,NA,35.4560353578873,-80.8884532043639,,tennis
295,308,328,Mint Hill Veterans Memorial Park,"8850 FAIRVIEW RD MINT HILL, NC 28227",Town Park,Yes,https://minthill.com/parks_recreation.php?Parks-Recreation-1,Yes,NA,NA,Yes,Yes,Yes,Yes,NA,NA,NA,35.1800049074388,-80.6344889578645,,tennis
307,320,341,Freedom Park,"2435 CUMBERLAND AV CHARLOTTE, NC 28203",Regional,Yes,https://www.mecknc.gov/parkandrec/pages/home.aspx?redirect=charmeck,Yes,NA,Yes,Yes,Yes,Yes,NA,NA,Yes,NA,35.1930682697266,-80.8448018160398,,tennis
310,323,344,David B. Waymer Park,"14200 HOLBROOKS RD HUNTERSVILLE, NC 28078",Town Park,Yes,https://www.huntersville.org/162/Parks-Recreation,Yes,NA,Yes,Yes,NA,Yes,NA,NA,NA,NA,35.3992988012942,-80.8342523968563,,tennis
321,334,356,Mint Hill Park on Wilgrove,"7750 JIM HARPER LN MINT HILL, NC 28227",Town Park,Yes,https://minthill.com/parks_recreation.php?Parks-Recreation-1,Yes,NA,NA,Yes,NA,Yes,NA,NA,Yes,NA,35.1892020493252,-80.6565498212705,,tennis
328,341,366,Abbott Park,"1300 SPRUCE ST CHARLOTTE, NC 28203",Neighborhood,No,https://www.mecknc.gov/parkandrec/pages/home.aspx?redirect=charmeck,Yes,NA,Yes,Yes,NA,NA,NA,NA,NA,NA,35.2156366793049,-80.8712061787355,,tennis
336,349,375,Sugaw Creek Park,"943 W SUGAR CREEK RD CHARLOTTE, NC 28213",Community,Yes,https://www.mecknc.gov/parkandrec/pages/home.aspx?redirect=charmeck,Yes,NA,Yes,Yes,Yes,Yes,Yes,NA,NA,NA,35.273065578968,-80.7937216093388,,tennis
355,368,397,Marvin Caldwell Park - City of Concord,"362 Georgia St SW Concord, NC",Municipal Park,Yes,http://www.concordnc.gov/Departments/Parks-Recreation/Facilities,Yes,Yes,Yes,Yes,NA,Yes,NA,NA,Yes,NA,35.3926267499257,-80.5827932198796,,tennis
357,370,399,James L. Dorton Park - City of Concord,"5700 Poplar Tent Rd Concord, NC",Municipal Park,No,http://www.concordnc.gov/Departments/Parks-Recreation/Facilities,NA,Yes,NA,Yes,NA,NA,Yes,NA,NA,NA,35.4110769825969,-80.6694463351402,,tennis
376,389,423,Marvin Caldwell Park - City of Concord,"362 Georgia St SW Concord, NC",Municipal Park,Yes,http://www.concordnc.gov/Departments/Parks-Recreation/Facilities,Yes,Yes,Yes,Yes,NA,Yes,NA,NA,Yes,NA,35.3926267499257,-80.5827932198796,,tennis
378,391,425,James L. Dorton Park - City of Concord,"5700 Poplar Tent Rd Concord, NC",Municipal Park,No,http://www.concordnc.gov/Departments/Parks-Recreation/Facilities,NA,Yes,NA,Yes,NA,NA,Yes,NA,NA,NA,35.4110769825969,-80.6694463351402,,tennis
396,409,445,Cook Road Park,"602 Cook Rd, Durham NC",Park,No,https://www.dprplaymore.org/Facilities/Facility/Details/Cook-Road-Park-12,Yes,NA,Yes,Yes,NA,NA,NA,NA,Yes,NA,35.9512139282367,-78.9132257841528,,tennis
398,411,447,East End Park,"1200 N Alston Ave, Durham NC",Park,Yes,https://www.dprplaymore.org/Facilities/Facility/Details/East-End-Park-20,Yes,NA,Yes,Yes,NA,Yes,NA,NA,Yes,Yes,35.9982748940269,-78.8858012687622,,tennis
399,412,448,Elmira Avenue Park,"540 Elmira Ave, Durham NC",Park,Yes,https://www.dprplaymore.org/Facilities/Facility/Details/Elmira-Avenue-Park-23,Yes,NA,Yes,Yes,NA,NA,NA,NA,Yes,NA,35.9653320360066,-78.9047695382117,,tennis
400,413,449,Garrett Road Park,"6815 Garrett Rd, Durham NC",Park,Yes,https://www.dprplaymore.org/Facilities/Facility/Details/Garrett-Road-Park-28,Yes,NA,NA,Yes,NA,NA,NA,NA,Yes,NA,35.9229405124051,-78.9608493987951,,tennis
402,415,451,Hillside Park,"1301 S Roxboro St, Durham NC",Park,Yes,https://www.dprplaymore.org/Facilities/Facility/Details/Hillside-Park-32,Yes,NA,Yes,Yes,NA,Yes,NA,NA,Yes,Yes,35.98100429933,-78.9044320073297,,tennis
408,422,458,Morreene Road Park,"1102 Morreene Rd, Durham NC",Park,Yes,https://www.dprplaymore.org/Facilities/Facility/Details/Morreene-Road-Park-46,Yes,NA,Yes,Yes,NA,NA,NA,NA,Yes,NA,36.0073861215869,-78.9548054059466,,tennis
409,423,459,rthgate Park,"300 W Club Blvd, Durham NC",Park,Yes,https://www.dprplaymore.org/Facilities/Facility/Details/rthgate-Park-47,Yes,NA,NA,Yes,NA,NA,NA,Yes,Yes,NA,36.0194299861519,-78.8949479452538,,tennis
414,428,464,Oval Drive Park,"2200 W Club Blvd, Durham NC",Park,No,https://www.dprplaymore.org/Facilities/Facility/Details/Oval-Drive-Park-54,Yes,NA,Yes,Yes,NA,NA,NA,NA,Yes,NA,36.0175938926239,-78.9284401024743,,tennis
426,440,477,Whippoorwill Park,"1632 Rowemont Dr,Durham  NC",Park,Yes,https://www.dprplaymore.org/Facilities/Facility/Details/Whippoorwill-Park-79,Yes,NA,NA,Yes,NA,NA,NA,NA,Yes,NA,36.0455181704526,-78.9246982635489,,tennis
431,445,482,Piney Wood Park,"400 E Woodcroft Pkwy,Durham  NC",Park,Yes,https://www.dprplaymore.org/Facilities/Facility/Details/Piney-Wood-Park-56,Yes,Yes,NA,Yes,NA,NA,NA,Yes,Yes,NA,35.9164283173076,-78.9240992502492,,tennis
435,449,487,Forest Hills Park,"1639 University Dr,Durham  NC",Park,Yes,https://www.dprplaymore.org/Facilities/Facility/Details/Forest-Hills-Park-24,Yes,NA,NA,Yes,NA,NA,NA,NA,Yes,Yes,35.9799582360577,-78.9143071204384,,tennis
438,452,491,Rock Quarry Park,"701 Stadium Dr, Durham NC",Park,Yes,https://www.dprplaymore.org/Facilities/Facility/Details/Rock-Quarry-Park-60,Yes,NA,NA,Yes,NA,NA,NA,NA,Yes,Yes,36.033794022925,-78.9011206795587,,tennis
439,453,492,Southern Boundaries Park,"3400 Third Fork Dr, Durham NC",Park,Yes,https://www.dprplaymore.org/Facilities/Facility/Details/Southern-Boundaries-Park-68,NA,NA,Yes,Yes,NA,NA,NA,NA,NA,NA,35.9579967751931,-78.929056637388,,tennis
445,459,505,Bethesda Park,"1816 Stage Rd, Durham NC",Park,Yes,https://www.dprplaymore.org/Facilities/Facility/Details/Bethesda-Park-4,Yes,NA,Yes,Yes,NA,NA,Yes,NA,Yes,NA,35.9455280416635,-78.8451170922938,,tennis
454,468,519,Annie L. Jones Park,"1414 Tarbert Drive, Cary, NC",NA,Yes,http://www.towfcary.org/recreation-enjoyment/parks-greenways-environment/parks/annie-jones-park,Yes,NA,NA,Yes,NA,Yes,NA,NA,NA,NA,35.7604940689245,-78.8114282723995,,tennis
463,478,534,Biltmore Hills Park,"2615 Fitzgerald Dr, Raleigh, NC",NA,Yes,https://raleighnc.gov/places/biltmore-hills-park,Yes,NA,NA,Yes,NA,Yes,NA,NA,Yes,NA,35.7489806222576,-78.6280954931578,,tennis
474,489,547,Caroli Pines Park,"2305 Lake Wheeler Rd, Raleigh, NC",NA,No,https://raleighnc.gov/places/caroli-pines-park,Yes,NA,NA,Yes,Yes,Yes,NA,Yes,Yes,NA,35.7493689132767,-78.6713605945823,,tennis
478,495,554,Cary Tennis Park,"2727 Louis Stephens Drive, Cary, NC",NA,Yes,http://www.towfcary.org/recreation-enjoyment/facilities/cary-tennis-park,NA,NA,NA,Yes,NA,NA,NA,NA,NA,NA,35.806817961765,-78.8616671151278,,tennis
480,497,556,Cedar Hills Park,"5600 Sweetbriar Dr, Raleigh, NC",NA,No,https://raleighnc.gov/places/cedar-hills-park,Yes,NA,NA,Yes,NA,Yes,Yes,NA,Yes,NA,35.8573587862509,-78.6290711685111,,tennis
498,517,580,Eastgate Park,"4200 Quail Hollow Dr, Raleigh, NC",NA,Yes,https://raleighnc.gov/places/eastgate-park,Yes,NA,NA,Yes,NA,NA,NA,NA,Yes,NA,35.8397028133466,-78.6247911924778,,tennis
508,528,597,Fred Fletcher Park,"805 Washington St, Raleigh, NC",NA,No,https://raleighnc.gov/places/fred-fletcher-park,Yes,NA,NA,Yes,NA,Yes,NA,NA,Yes,NA,35.7938912355814,-78.652576540334593,,tennis
513,535,605,Garner Recreatiol Park,"221 East Garner Road, Garner NC, 27529",NA,Yes,http://www.garnernc.gov/Departments/Parks%20and%20Recreation/Parks.aspx?ID=5,Yes,NA,NA,Yes,NA,Yes,NA,NA,NA,NA,35.7066103189939,-78.603413613341,,tennis
515,537,607,Glen Eden Pilot Park,"1500 Glen Eden Dr, Raleigh, NC",NA,No,https://raleighnc.gov/places/glen-eden-pilot-park,Yes,NA,NA,Yes,NA,NA,NA,NA,Yes,NA,35.8267906910611,-78.6846283629857,,tennis
517,541,612,Green Road Park,"4201 Green Rd, Raleigh NC",NA,Yes,https://raleighnc.gov/places/green-road-park,Yes,NA,NA,Yes,Yes,Yes,NA,NA,Yes,NA,35.8403748312079,-78.5907977930654,,tennis
518,542,613,Greenbrier Park,"613 Winterlochen Road, Garner NC, 27529",NA,No,http://www.garnernc.gov/Departments/Parks%20and%20Recreation/Parks.aspx?ID=17,Yes,NA,NA,Yes,NA,NA,NA,NA,Yes,NA,35.7192399752778,-78.6486291692121,,tennis
524,548,619,Harper Park,"207 Main St, Knightdale, NC",NA,Yes,http://www.knightdalenc.gov/index.aspx?page=351,Yes,NA,NA,Yes,NA,NA,NA,NA,Yes,NA,35.7901406719039,-78.4818050910664,,tennis
532,556,630,Holding Park,"133 W Owen Ave, Wake Forest, NC",NA,No,http://www.wakeforestnc.gov/holding-park.aspx,Yes,NA,NA,Yes,NA,Yes,NA,NA,Yes,NA,35.977840350406,-78.5129834314606,,tennis
539,563,639,J.B. Flaherty Park,"1226 N White St, Wake Forest, NC",NA,Yes,http://www.wakeforestnc.gov/residents-parksrecreation_facilities_flaherty.aspx,NA,NA,NA,Yes,NA,Yes,NA,Yes,Yes,NA,35.9937019254658,-78.4911404813396,,tennis
542,566,642,Jaycee Park,"2405 Wade Ave, Raleigh, NC",NA,No,https://raleighnc.gov/places/jaycee-park,Yes,NA,NA,Yes,Yes,Yes,NA,NA,Yes,NA,35.8003876220457,-78.6632799057196,,tennis
543,567,643,John Chavis Memorial Park,"505 Martin Luther King Jr Blvd, Raleigh, NC",NA,No,https://raleighnc.gov/places/john-chavis-memorial-park,Yes,NA,NA,Yes,NA,Yes,NA,NA,Yes,NA,35.7681292372864,-78.6300519684482,,tennis
548,572,649,Kelly Road Park,"1609 Kelly Rd., Apex, NC",NA,No,https://www.apexnc.org/799/Kelly-Road-Park,Yes,NA,NA,Yes,NA,Yes,NA,NA,Yes,NA,35.7325318479925,-78.8955021341229,,tennis
549,573,650,Kentwood Park,"4531 Kaplan Dr, Raleigh, NC",NA,Yes,https://raleighnc.gov/places/kentwood-park,Yes,NA,NA,Yes,NA,Yes,Yes,NA,Yes,NA,35.7768682013035,-78.6961841693236,,tennis
560,585,665,Lake Lynn Park - Lynn Rd Entrance,"7921 Ray Rd, Raleigh, NC",NA,No,https://raleighnc.gov/places/lake-lynn-park,Yes,NA,NA,Yes,NA,Yes,NA,NA,NA,NA,35.8898946573249,-78.6972559422496,,tennis
561,586,666,Lake Lynn Park - Ray Rd Entrance,"7921 Ray Rd, Raleigh, NC",NA,No,https://raleighnc.gov/places/lake-lynn-park,Yes,NA,NA,Yes,NA,Yes,NA,NA,NA,NA,35.8898946573249,-78.6972559422496,,tennis
569,594,677,Lions Park,"516 Dennis Ave, Raleigh, NC",NA,No,https://raleighnc.gov/places/lions-park,Yes,NA,NA,Yes,NA,Yes,NA,NA,Yes,NA,35.7984586457392,-78.6157921179623,,tennis
579,604,688,Method Community Park,"514 Method Rd, Raleigh, NC",NA,No,https://raleighnc.gov/places/method-community-park,Yes,NA,NA,Yes,NA,Yes,NA,NA,Yes,NA,35.7931019477483,-78.6937440251474,,tennis
582,607,693,Millbrook Exchange Park,"1815 Spring Forest Rd, Raleigh, NC",NA,No,https://raleighnc.gov/places/millbrook-exchange-park,Yes,NA,NA,Yes,NA,Yes,NA,Yes,Yes,NA,35.8666084931912,-78.6081263250014,,tennis
590,615,706,rth Hills Park,"100 Chowan Cir, Raleigh, NC",NA,Yes,https://raleighnc.gov/places/rth-hills-park,Yes,NA,NA,Yes,NA,Yes,NA,NA,Yes,NA,35.8402913217394,-78.6558580993262,,tennis
594,619,711,Optimist Park,"5900 Whittier Dr, Raleigh, NC",NA,Yes,https://raleighnc.gov/places/optimist-park,Yes,NA,NA,Yes,NA,Yes,NA,NA,NA,NA,35.8625561709723,-78.6435880807904,,tennis
600,626,720,Powell Drive Park,"740 Powell Dr, Raleigh, NC",NA,No,https://raleighnc.gov/places/powell-drive-park,Yes,NA,NA,Yes,NA,NA,NA,NA,Yes,NA,35.7809485293459,-78.712890957114,,tennis
603,629,723,Pullen Park,"410 Park Ave, Raleigh, NC",NA,Yes,https://raleighnc.gov/places/pullen-park,Yes,NA,NA,Yes,NA,NA,NA,NA,Yes,NA,35.7860598342814,-78.6529249892162,,tennis
605,631,725,R.S. Dunham Park,"519 Walnut Street, Cary, NC",NA,Yes,http://www.towfcary.org/Departments/Parks__Recreation___Cultural_Resources/Parks_and_Greenways/Parks/R__S__Dunham_Park.htm,NA,NA,NA,Yes,NA,NA,NA,NA,NA,NA,35.7777421669003,-78.7710163889158,,tennis
610,636,732,Roberts Park,"1300 E Martin St, Raleigh, NC",NA,No,https://raleighnc.gov/places/roberts-park,Yes,NA,NA,Yes,NA,Yes,NA,NA,Yes,NA,35.7761753219216,-78.619483734309,,tennis
618,645,742,Sanderford Road Park,"2623 Sanderford Rd, Raleigh, NC",NA,No,https://raleighnc.gov/places/sanderford-road-park,Yes,NA,NA,Yes,NA,Yes,NA,NA,Yes,NA,35.7434470805997,-78.6139055004339,,tennis
624,651,749,South Garner Park,"1210 Poole Drive, Garner NC, 27529",NA,Yes,http://www.garnernc.gov/Departments/Parks%20and%20Recreation/Parks.aspx?ID=24,Yes,NA,NA,Yes,NA,Yes,NA,NA,NA,NA,35.693711175753,-78.6242597723923,,tennis
626,653,752,Spring Forest Road Park,"4203 Spring Forest Rd, Raleigh, NC",NA,No,https://raleighnc.gov/places/spring-forest-road-park,Yes,NA,NA,Yes,NA,Yes,NA,NA,Yes,NA,35.8561406068729,-78.5716995313947,,tennis
629,657,758,Tarboro Road Park,"121 N Tarboro St, Raleigh, NC",NA,No,https://raleighnc.gov/places/tarboro-road-park,Yes,NA,NA,Yes,NA,NA,NA,NA,Yes,NA,35.7816670517478,-78.6222877236968,,tennis
636,664,765,Ting Park,"1151 N. Main St., Holly Springs NC",NA,No,https://www.hollyspringsnc.us/607/Ting-Park,NA,NA,NA,Yes,NA,Yes,NA,NA,NA,NA,35.6668050898292,-78.8353152881776,,tennis
652,681,783,Wendell Park,"601 W. Third Street, Wendell, NC",NA,Yes,http://www.towfwendell.com/departments/parks-and-recreation,Yes,NA,NA,Yes,NA,Yes,Yes,Yes,Yes,NA,35.7805463738642,-78.3610290224412,,tennis
655,684,787,Whitley Park,"601 N Wakefield St, Zebulon, NC",NA,No,https://www.towfzebulon.org/services/parks-and-recreation/parks-facilities,Yes,NA,NA,Yes,NA,NA,NA,NA,Yes,NA,35.824622049932,-78.3204699559558,,tennis
658,688,792,Peter Williams Park,"1525 Lynn Rd, Raleigh, NC",NA,No,https://raleighnc.gov/places/peter-williams-park,Yes,NA,NA,Yes,Yes,NA,NA,NA,Yes,NA,35.8708713037184,-78.6653639654499,,tennis
660,690,796,Worthdale Park,"1001 Cooper Rd, Raleigh, NC",NA,Yes,https://raleighnc.gov/places/worthdale-park,Yes,NA,NA,Yes,NA,Yes,NA,NA,NA,NA,35.7636737987783,-78.5874399641523,,tennis
663,693,3,Five Points Park,"200 FRENCH ST CHARLOTTE, NC 28216",Neighborhood,No,https://www.mecknc.gov/parkandrec/pages/home.aspx?redirect=charmeck,Yes,NA,Yes,Yes,NA,NA,NA,NA,Yes,NA,35.248809,-80.8596975,,tennis
679,709,396,Les Myers Park - City of Concord,"338 Lawndale Ave SE Concord, NC",Municipal Park,Yes,http://www.concordnc.gov/Departments/Parks-Recreation/Facilities,Yes,NA,Yes,Yes,NA,Yes,NA,NA,Yes,NA,35.394983238216,-80.5632361436357,,tennis
682,712,422,Les Myers Park - City of Concord,"338 Lawndale Ave SE Concord, NC",Municipal Park,Yes,http://www.concordnc.gov/Departments/Parks-Recreation/Facilities,Yes,NA,Yes,Yes,NA,Yes,NA,NA,Yes,NA,35.394983238216,-80.5632361436357,,tennis
694,724,522,Apex Community Park,"2200 Laura Duncan Rd., Apex, NC",NA,Yes,http://www.apexnc.org/795/Apex-Community-Park,Yes,NA,NA,Yes,Yes,Yes,NA,NA,Yes,NA,35.7357782830882,-78.8430655175109,,tennis
696,726,526,Apex ture Park (Seymour Athletic Fields),"2500 Evans Road, Apex NC",NA,Yes,https://www.apexnc.org/800/ture-Park-Seymour-Athletic-Fields,Yes,NA,NA,Yes,Yes,NA,NA,NA,Yes,NA,35.70128275,-78.90636105,,tennis
698,728,548,Carpenter Park,"4420 Louis Stephens Drive, Cary, NC",NA,Yes,http://www.towfcary.org/recreation-enjoyment/parks-greenways-environment/parks/carpenter-park,Yes,NA,NA,Yes,NA,NA,NA,NA,Yes,NA,35.8091280506543,-78.8618120759275,,tennis
699,729,559,Church Street Park,"5800 Cricket Pitch Way, Morrisville NC",NA,Yes,http://www.towfmorrisville.org/government/departments-services/parks-recreation-cultural-resources/parks-and-greenways/church-street-park,Yes,NA,NA,Yes,NA,NA,NA,NA,Yes,NA,35.8463908244354,-78.8427502773471,,tennis
702,732,582,Elevate Fitness Course,"2200 Laura Duncan Road, Apex NC",NA,Yes,http://www.apexnc.org/1187/Elevate-Fitness-Course,Yes,NA,NA,Yes,NA,NA,NA,NA,Yes,NA,35.7357782830882,-78.8430655175109,,tennis
704,734,625,Heritage High Park,"1140 Forestville Rd, Wake Forest, NC",NA,Yes,http://www.wakeforestnc.gov/heritage-high-park.aspx,NA,NA,NA,Yes,NA,Yes,NA,NA,NA,NA,35.9401343334153,-78.5073647827447,,tennis
711,742,700,Morrisville Aquatics and Fitness Center,"1301 Morrisville Pkwy, Morrisville, NC",NA,Yes,https://www.towfmorrisville.org/government/departments-services/parks-recreation-cultural-resources/morrisville-aquatics-and-fitness-center,NA,NA,NA,Yes,NA,NA,NA,NA,NA,NA,35.8099935,-78.8405269,,tennis
726,15,485,Duke Park,"106 W Kx St,Durham  NC",Park,Yes,https://www.dprplaymore.org/Facilities/Facility/Details/Duke-Park-17,Yes,NA,NA,Yes,NA,NA,NA,Yes,Yes,NA,36.013213,-78.893372,,tennis
737,42,731,Robert V. Godbold Park,"2050 NW Mayrd Road, Cary, NC",NA,Yes,http://www.towfcary.org/recreation-enjoyment/parks-greenways-environment/parks/robert-v-godbold-park,Yes,NA,NA,Yes,NA,NA,NA,Yes,NA,NA,35.80056,-78.790735,,tennis
747,4,120,Plum Creek Park,"18928 BARTLETTE CREEK DR DAVIDSON, NC 28036",Town Park,No,https://www.ci.davidson.nc.us/130/Parks-Recreation,Yes,NA,Yes,Yes,NA,NA,NA,NA,NA,NA,35.474032,-80.823527,,tennis
752,18,511,Action Park,"609 Wake Chapel Road, Fuquay-Vari, NC",NA,Yes,http://www.fuquay-vari.org/departments-and-services/parks-recreation-and-cultural-resources/parks/action-park-description.html,Yes,NA,NA,Yes,NA,Yes,NA,NA,NA,NA,35.591424,-78.801715,,tennis
754,22,538,Brentwood Park,"3315 Vinson Ct, Raleigh, NC",NA,No,https://raleighnc.gov/places/brentwood-park,Yes,NA,NA,Yes,NA,Yes,NA,NA,Yes,NA,35.82849982,-78.59954789,,tennis
757,32,632,Honeycutt Road Park,"101 Fitness Drive, Fuquay-Vari, NC",NA,Yes,http://www.fuquay-vari.org/departments-and-services/parks-recreation-and-cultural-resources/parks/honeycutt-road-park.html,Yes,NA,NA,Yes,NA,NA,NA,NA,Yes,NA,35.581754,-78.762361,,tennis
36,36,42,Reedy Creek Park,"2900 ROCKY RIVER RD CHARLOTTE, NC 28215",Regional,Yes,https://www.mecknc.gov/parkandrec/pages/home.aspx?redirect=charmeck,Yes,NA,Yes,NA,Yes,Yes,Yes,Yes,NA,NA,35.2759946810159,-80.7180725530453,,volleyball
49,49,55,Eastway Park,"423 EASTWAY DR CHARLOTTE, NC 28215",Community,Yes,https://www.mecknc.gov/parkandrec/pages/home.aspx?redirect=charmeck,Yes,NA,Yes,NA,Yes,NA,NA,NA,Yes,NA,35.2520451888124,-80.7803775491842,,volleyball
75,77,84,Renaissance Park,"1536 W TYVOLA RD CHARLOTTE, NC 28217",Regional,Yes,https://www.mecknc.gov/parkandrec/pages/home.aspx?redirect=charmeck,NA,NA,NA,NA,Yes,Yes,Yes,Yes,NA,NA,35.175099855529,-80.9096777631741,,volleyball
87,90,97,Latta Nature Preserve,"5226 SAMPLE RD HUNTERSVILLE, NC 28216",Nature Preserve,Yes,https://www.mecknc.gov/parkandrec/pages/home.aspx?redirect=charmeck,NA,NA,NA,NA,Yes,NA,NA,NA,NA,NA,35.3530263218421,-80.9290394614437,,volleyball
91,94,101,T.M. Winget Park,"12025 WINGET RD CHARLOTTE, NC 28278",Regional,Yes,https://www.mecknc.gov/parkandrec/pages/home.aspx?redirect=charmeck,Yes,NA,Yes,NA,Yes,Yes,Yes,NA,Yes,NA,35.1301110200499,-81.0015366648542,,volleyball
100,103,110,Chantilly Park,"222 WYANOKE AV CHARLOTTE, NC 28205",Neighborhood,No,https://www.mecknc.gov/parkandrec/pages/home.aspx?redirect=charmeck,Yes,NA,NA,NA,Yes,NA,NA,NA,Yes,NA,35.2088543401387,-80.8098963169704,,volleyball
160,166,180,William R. Davie Park,"4635 PINEVILLE-MATTHEWS RD CHARLOTTE, NC 28226",Regional,Yes,https://www.mecknc.gov/parkandrec/pages/home.aspx?redirect=charmeck,Yes,NA,Yes,NA,Yes,Yes,NA,Yes,Yes,NA,35.0893538838549,-80.8060039688839,,volleyball
184,192,207,Amay James Recreation Center & Annex,"2425 LESTER ST CHARLOTTE, NC 28208",Recreation Center,Yes,https://www.mecknc.gov/parkandrec/pages/home.aspx?redirect=charmeck,NA,NA,NA,NA,Yes,NA,NA,NA,NA,NA,35.2037997850906,-80.9011765961558,,volleyball
189,197,212,Stumptown Park,"120 S TRADE ST MATTHEWS, NC 28105",Town Park,Yes,https://www.matthewsnc.gov/pview.aspx?id=20727&catid=0,Yes,NA,NA,NA,Yes,NA,NA,NA,Yes,NA,35.1147979526616,-80.7236242793601,,volleyball
203,211,226,Belle Johnston Community Center,"1000 JOHNSTON DR PINEVILLE, NC 28134",Recreation Center,Yes,http://www.pinevillenc.gov/Departments/ParksRecreaton/tabid/103/Default.aspx,NA,NA,Yes,NA,Yes,NA,NA,NA,NA,NA,35.078912353583,-80.8919718784077,,volleyball
210,218,234,Blythe Landing Park,"15901 N C 73 HY HUNTERSVILLE, NC 28078",Community,Yes,https://www.mecknc.gov/parkandrec/pages/home.aspx?redirect=charmeck,Yes,NA,NA,NA,Yes,NA,NA,NA,Yes,NA,35.4336191534711,-80.9059105808637,,volleyball
216,224,240,Shuffletown Park,"9530 BELLHAVEN BV CHARLOTTE, NC 28216",Community,Yes,https://www.mecknc.gov/parkandrec/pages/home.aspx?redirect=charmeck,Yes,NA,NA,NA,Yes,NA,NA,Yes,NA,NA,35.3174056756125,-80.9460638247886,,volleyball
219,227,243,Coulwood Park,"198 COULWOOD PARK DR CHARLOTTE, NC 28214",Community,Yes,https://www.mecknc.gov/parkandrec/pages/home.aspx?redirect=charmeck,Yes,NA,NA,Yes,Yes,Yes,NA,NA,NA,NA,35.3065754828297,-80.9419421526189,,volleyball
221,229,245,Colonel Francis J. Beatty Park,"4330 WEDDINGTON RD CHARLOTTE, NC 28105",Regional,Yes,https://www.mecknc.gov/parkandrec/pages/home.aspx?redirect=charmeck,Yes,NA,Yes,Yes,Yes,Yes,NA,NA,Yes,NA,35.0678580985465,-80.7287248849222,,volleyball
223,231,247,Copperhead Island,"15200 SOLDIER RD CHARLOTTE, NC 28278",Nature Preserve,Yes,https://www.mecknc.gov/parkandrec/pages/home.aspx?redirect=charmeck,NA,NA,NA,NA,Yes,NA,NA,NA,NA,NA,35.1098484966283,-81.0250543627696,,volleyball
234,242,258,Hornets Nest Park,"6301 BEATTIES FORD RD CHARLOTTE, NC 28216",Regional,Yes,https://www.mecknc.gov/parkandrec/pages/home.aspx?redirect=charmeck,Yes,NA,Yes,Yes,Yes,Yes,Yes,NA,NA,NA,35.3200202859571,-80.8651414799234,,volleyball
235,243,259,Eva B. Barber Park,"3801 GOSSETT AV CHARLOTTE, NC 28208",Neighborhood,No,https://www.mecknc.gov/parkandrec/pages/home.aspx?redirect=charmeck,Yes,NA,Yes,NA,Yes,NA,NA,NA,NA,NA,35.2608656236362,-80.882987830168,,volleyball
241,249,265,Independence Park,"1631 PARK DR CHARLOTTE, NC 28204",Neighborhood,No,https://www.mecknc.gov/parkandrec/pages/home.aspx?redirect=charmeck,Yes,NA,Yes,Yes,Yes,NA,NA,NA,Yes,NA,35.2156267772641,-80.8260922592987,,volleyball
246,254,270,Latta Park,"601 E PARK AV CHARLOTTE, NC 28203",Community,Yes,https://www.mecknc.gov/parkandrec/pages/home.aspx?redirect=charmeck,Yes,NA,Yes,Yes,Yes,NA,NA,NA,Yes,Yes,35.2099897827597,-80.8513997029925,,volleyball
247,255,271,Mallard Creek Park,"3001 JOHNSTON OEHLER RD CHARLOTTE, NC 28269",Regional,Yes,https://www.mecknc.gov/parkandrec/pages/home.aspx?redirect=charmeck,Yes,NA,NA,Yes,Yes,Yes,NA,NA,Yes,NA,35.3613345218918,-80.7594125391203,,volleyball
261,269,285,Ramsey Creek Park,"18445 NANTZ RD CORNELIUS, NC 28078",Community,Yes,https://www.mecknc.gov/parkandrec/pages/home.aspx?redirect=charmeck,Yes,NA,NA,NA,Yes,NA,NA,Yes,Yes,NA,35.4639720415307,-80.8971361137988,,volleyball
262,270,286,Park Road Park,"6220 PARK RD CHARLOTTE, NC 28210",Community,Yes,https://www.mecknc.gov/parkandrec/pages/home.aspx?redirect=charmeck,Yes,NA,Yes,NA,Yes,Yes,NA,NA,Yes,NA,35.1468922730006,-80.8499198315654,,volleyball
268,281,298,JV Washam Recreation Center,"9611 WESTMORELAND RD CORNELIUS, NC 28031",Recreation Center,Yes,https://www.cornelius.org/103/Parks-Arts-Recreation-Culture,NA,NA,Yes,NA,Yes,NA,NA,NA,NA,NA,35.4641941139515,-80.8679597036809,,volleyball
282,295,314,Robbins Park,"17738 WEST CATAWBA AV CORNELIUS, NC 28031",Town Park,Yes,https://www.cornelius.org/103/Parks-Arts-Recreation-Culture,Yes,NA,NA,Yes,Yes,NA,Yes,NA,Yes,NA,35.4560353578873,-80.8884532043639,,volleyball
284,297,316,Bailey Road Recreation Center,"11900 BAILEY RD CORNELIUS, NC 28031",Recreation Center,Yes,https://www.cornelius.org/103/Parks-Arts-Recreation-Culture,NA,NA,Yes,NA,Yes,NA,NA,NA,NA,NA,35.4678928136024,-80.839312466423,,volleyball
295,308,328,Mint Hill Veterans Memorial Park,"8850 FAIRVIEW RD MINT HILL, NC 28227",Town Park,Yes,https://minthill.com/parks_recreation.php?Parks-Recreation-1,Yes,NA,NA,Yes,Yes,Yes,Yes,NA,NA,NA,35.1800049074388,-80.6344889578645,,volleyball
307,320,341,Freedom Park,"2435 CUMBERLAND AV CHARLOTTE, NC 28203",Regional,Yes,https://www.mecknc.gov/parkandrec/pages/home.aspx?redirect=charmeck,Yes,NA,Yes,Yes,Yes,Yes,NA,NA,Yes,NA,35.1930682697266,-80.8448018160398,,volleyball
332,345,371,Northern Regional Recreation Center,"18121 OLD STATESVILLE RD CORNELIUS, NC 28031",Recreation Center,Yes,https://www.mecknc.gov/parkandrec/pages/home.aspx?redirect=charmeck,Yes,NA,Yes,NA,Yes,NA,NA,NA,NA,NA,35.4593164363762,-80.8436502729271,,volleyball
336,349,375,Sugaw Creek Park,"943 W SUGAR CREEK RD CHARLOTTE, NC 28213",Community,Yes,https://www.mecknc.gov/parkandrec/pages/home.aspx?redirect=charmeck,Yes,NA,Yes,Yes,Yes,Yes,Yes,NA,NA,NA,35.273065578968,-80.7937216093388,,volleyball
471,486,544,Campbell Lodge,"3237 Spottswood St, Raleigh, NC",NA,No,https://raleighnc.gov/places/durant-ture-preserve,Yes,NA,NA,NA,Yes,NA,NA,NA,Yes,NA,35.8892781915076,-78.5805220856532,,volleyball
474,489,547,Caroli Pines Park,"2305 Lake Wheeler Rd, Raleigh, NC",NA,No,https://raleighnc.gov/places/caroli-pines-park,Yes,NA,NA,Yes,Yes,Yes,NA,Yes,Yes,NA,35.7493689132767,-78.6713605945823,,volleyball
496,515,578,Durant ture Preserve,"8305 Camp Durant Rd, Raleigh, NC",NA,Yes,https://raleighnc.gov/places/durant-ture-preserve,Yes,NA,NA,NA,Yes,NA,NA,NA,Yes,NA,35.8945981948626,-78.5784591271774,,volleyball
500,519,583,Eliza Pool Park,"1600 Fayetteville St, Raleigh, NC",NA,No,https://raleighnc.gov/places/eliza-pool-park,Yes,NA,NA,NA,Yes,NA,NA,NA,Yes,NA,35.7608266385683,-78.643568214505,,volleyball
517,541,612,Green Road Park,"4201 Green Rd, Raleigh NC",NA,Yes,https://raleighnc.gov/places/green-road-park,Yes,NA,NA,Yes,Yes,Yes,NA,NA,Yes,NA,35.8403748312079,-78.5907977930654,,volleyball
533,557,631,Honeycutt Park,"1032 Clear Creek Farm Rd, Raleigh, NC",NA,Yes,https://raleighnc.gov/places/honeycutt-park,Yes,NA,NA,NA,Yes,Yes,NA,NA,Yes,NA,35.9040136822878,-78.6261204843865,,volleyball
542,566,642,Jaycee Park,"2405 Wade Ave, Raleigh, NC",NA,No,https://raleighnc.gov/places/jaycee-park,Yes,NA,NA,Yes,Yes,Yes,NA,NA,Yes,NA,35.8003876220457,-78.6632799057196,,volleyball
556,581,661,Lake Crabtree County Park,"1400 Aviation Pkwy., Morrisville, NC  27560",NA,Yes,https://www.wakegov.com/departments-government/parks-recreation-and-open-space/all-parks-trails/lake-crabtree-county-park,Yes,NA,NA,NA,Yes,NA,NA,NA,Yes,NA,35.8452188216639,-78.8013691253636,,volleyball
562,587,667,Lake Wheeler Park,"6404 Lake Wheeler Rd, Raleigh, NC",NA,Yes,https://raleighnc.gov/places/lake-wheeler-park,Yes,NA,NA,NA,Yes,NA,NA,NA,Yes,NA,35.6948214230052,-78.693412242805607,,volleyball
572,597,681,Longview Park,"321 Bertie Dr, Raleigh, NC",NA,No,https://raleighnc.gov/places/longview-pool,NA,NA,NA,NA,Yes,NA,NA,NA,NA,NA,35.7843036327367,-78.6102423560884,,volleyball
609,635,730,Roake Park,"1500 Cherokee Dr, Raleigh, NC",NA,No,https://raleighnc.gov/places/roake-park,Yes,NA,NA,NA,Yes,NA,NA,NA,Yes,NA,35.8005523246894,-78.640179024402,,volleyball
658,688,792,Peter Williams Park,"1525 Lynn Rd, Raleigh, NC",NA,No,https://raleighnc.gov/places/peter-williams-park,Yes,NA,NA,Yes,Yes,NA,NA,NA,Yes,NA,35.8708713037184,-78.6653639654499,,volleyball
671,701,303,Eastway Regional Recreation Center,"3150 EASTWAY PARK DR CHARLOTTE, NC 28213",Recreation Center,Yes,https://www.mecknc.gov/parkandrec/pages/home.aspx?redirect=charmeck,NA,NA,Yes,NA,Yes,NA,NA,NA,NA,NA,35.2542770033001,-80.7779212569459,,volleyball
694,724,522,Apex Community Park,"2200 Laura Duncan Rd., Apex, NC",NA,Yes,http://www.apexnc.org/795/Apex-Community-Park,Yes,NA,NA,Yes,Yes,Yes,NA,NA,Yes,NA,35.7357782830882,-78.8430655175109,,volleyball
696,726,526,Apex ture Park (Seymour Athletic Fields),"2500 Evans Road, Apex NC",NA,Yes,https://www.apexnc.org/800/ture-Park-Seymour-Athletic-Fields,Yes,NA,NA,Yes,Yes,NA,NA,NA,Yes,NA,35.70128275,-78.90636105,,volleyball
701,731,566,Crowder County Park,"4709 Ten Ten Road, Wake County NC",NA,Yes,https://www.wakegov.com/departments-government/parks-recreation-and-open-space/all-parks-trails/crowder-county-park,Yes,NA,NA,NA,Yes,NA,NA,NA,Yes,NA,35.691324084910804,-78.7653615094645,,volleyball
731,34,653,Kiwanis Park,"2525 ble Rd, Raleigh, NC",NA,No,https://raleighnc.gov/places/kiwanis-park,Yes,NA,NA,NA,Yes,NA,NA,NA,Yes,NA,35.81717867,-78.6317753,,volleyball
736,40,704,rth Cary Park,"1100 rwell Boulevard, Cary, NC",NA,Yes,http://www.towfcary.org/recreation-enjoyment/parks-greenways-environment/parks/rth-cary-park,Yes,NA,NA,NA,Yes,NA,NA,NA,Yes,NA,35.82139,-78.787315,,volleyball
760,43,751,Southgate Park,"1801 Proctor Rd, Raleigh, NC",NA,No,https://raleighnc.gov/places/southgate-park,Yes,NA,NA,NA,Yes,Yes,NA,NA,Yes,NA,35.75511244,-78.60782548,,volleyball
